{
"type": "FeatureCollection",
"name": "Westfield_NewMarket_lv1-3",
"crs": { "type": "name", "properties": { "name": "urn:ogc:def:crs:EPSG::3857" } },
"xy_coordinate_resolution": 1e-08,
"features": [
{ "type": "Feature", "properties": { "fid": 1, "zone_type": "shops", "zone_name": "shops_lv1_1", "floor_level": 1 }, "geometry": { "type": "Polygon", "coordinates": [ [ [ 19456083.25338048, -4421075.36152267 ], [ 19456095.71397071, -4421078.42560223 ], [ 19456095.30542677, -4421080.26404997 ], [ 19456099.59513816, -4421080.26404997 ], [ 19456103.27203364, -4421082.51104165 ], [ 19456105.11048137, -4421085.77939319 ], [ 19456104.70193743, -4421090.88619246 ], [ 19456103.4763056, -4421093.74600005 ], [ 19456104.70193743, -4421094.56308794 ], [ 19456079.576485, -4421192.61363399 ], [ 19456074.6739577, -4421196.69907341 ], [ 19456066.91162281, -4421180.97013164 ], [ 19456066.70735084, -4421168.50954142 ], [ 19456080.39357289, -4421109.06639787 ], [ 19456080.59784486, -4421101.50833495 ], [ 19456079.37221304, -4421092.11182429 ], [ 19456083.25338048, -4421075.36152267 ] ], [ [ 19456099.59513816, -4421080.26404997 ], [ 19456091.74234263, -4421088.30415757 ], [ 19456094.99430874, -4421092.36911521 ], [ 19456105.11048137, -4421085.77939319 ], [ 19456103.27203364, -4421082.51104165 ], [ 19456099.59513816, -4421080.26404997 ] ] ] } },
{ "type": "Feature", "properties": { "fid": 2, "zone_type": "shops", "zone_name": "shops_lv1_2", "floor_level": 1 }, "geometry": { "type": "Polygon", "coordinates": [ [ [ 19456063.4389993, -4421202.21441662 ], [ 19456059.76210383, -4421205.07422422 ], [ 19455940.26300083, -4421174.43342857 ], [ 19455941.08008871, -4421172.18643689 ], [ 19455922.28706738, -4421167.48818156 ], [ 19455931.47930608, -4421131.12777074 ], [ 19455992.55662539, -4421146.8567125 ], [ 19456009.306927, -4421154.41477542 ], [ 19456040.76481053, -4421178.92741194 ], [ 19456058.33220003, -4421192.81790596 ], [ 19456063.4389993, -4421202.21441662 ] ] ] } },
{ "type": "Feature", "properties": { "fid": 3, "zone_type": "shops", "zone_name": "shops_lv1_3", "floor_level": 1 }, "geometry": { "type": "Polygon", "coordinates": [ [ [ 19455918.471183, -4421078.38278685 ], [ 19455911.6649249, -4421104.98095846 ], [ 19455905.53676577, -4421130.51495482 ], [ 19455897.90200439, -4421161.71771224 ], [ 19455835.47147974, -4421147.11205246 ], [ 19455856.71576472, -4421062.33918452 ], [ 19455918.471183, -4421078.38278685 ] ] ] } },
{ "type": "Feature", "properties": { "fid": 4, "zone_type": "parking", "zone_name": "parking_lv1", "floor_level": 1 }, "geometry": { "type": "Polygon", "coordinates": [ [ [ 19455933.49305281, -4421082.28535787 ], [ 19455856.71576472, -4421062.33918452 ], [ 19455853.07858287, -4421076.85293901 ], [ 19455844.66371843, -4421075.00404672 ], [ 19455856.1029488, -4421033.33256465 ], [ 19455865.49945946, -4421021.53585833 ], [ 19455869.58489889, -4421021.33158636 ], [ 19455962.12010172, -4421044.2100471 ], [ 19455979.27894728, -4421048.29548652 ], [ 19455969.88243661, -4421085.88152917 ], [ 19455994.39507313, -4421092.21396027 ], [ 19456000.9317762, -4421104.47027853 ], [ 19455977.84904348, -4421104.6745505 ], [ 19455979.89176319, -4421094.05240801 ], [ 19455969.88243661, -4421091.39687239 ], [ 19455969.47389267, -4421093.64386407 ], [ 19455959.05602215, -4421091.2947364 ], [ 19455959.90221657, -4421087.76216322 ], [ 19455945.3698001, -4421085.37084925 ], [ 19455933.49305281, -4421082.28535787 ] ] ] } },
{ "type": "Feature", "properties": { "fid": 5, "zone_type": "shops", "zone_name": "shops_lv1_4", "floor_level": 1 }, "geometry": { "type": "Polygon", "coordinates": [ [ [ 19455979.27894728, -4421048.29548652 ], [ 19455969.88243661, -4421085.88152917 ], [ 19455994.39507313, -4421092.21396027 ], [ 19456000.9317762, -4421104.47027853 ], [ 19455977.84904348, -4421104.6745505 ], [ 19455979.89176319, -4421094.05240801 ], [ 19455969.88243661, -4421091.39687239 ], [ 19455969.47389267, -4421093.64386407 ], [ 19455965.59272522, -4421092.62250421 ], [ 19455958.23893427, -4421122.03766803 ], [ 19455973.15078815, -4421126.53165139 ], [ 19456013.18809445, -4421124.89747562 ], [ 19456026.67004453, -4421118.56504452 ], [ 19456039.5391787, -4421111.82406948 ], [ 19456050.97840907, -4421104.6745505 ], [ 19456061.19200762, -4421097.72930349 ], [ 19456071.2013342, -4421085.6772572 ], [ 19456075.08250165, -4421073.42093895 ], [ 19455979.27894728, -4421048.29548652 ] ] ] } },
{ "type": "Feature", "properties": { "fid": 6, "zone_type": "shops", "zone_name": "shops_lv1_5", "floor_level": 1 }, "geometry": { "type": "Polygon", "coordinates": [ [ [ 19456021.46110928, -4421144.50758483 ], [ 19456021.86965322, -4421140.11573746 ], [ 19456065.37958303, -4421113.56038124 ], [ 19456068.64793457, -4421113.66251722 ], [ 19456069.97570238, -4421116.01164489 ], [ 19456065.17531106, -4421136.336706 ], [ 19456067.11589478, -4421136.84738592 ], [ 19456064.56249515, -4421148.18448031 ], [ 19456062.00909551, -4421147.5716644 ], [ 19456060.27278376, -4421154.51691141 ], [ 19456056.39161631, -4421158.70448681 ], [ 19456050.1613212, -4421162.48351828 ], [ 19456043.8288901, -4421162.48351828 ], [ 19456021.46110928, -4421144.50758483 ] ] ] } },
{ "type": "Feature", "properties": { "fid": 7, "zone_type": "shops", "zone_name": "farmers_lv1", "floor_level": 1 }, "geometry": { "type": "Polygon", "coordinates": [ [ [ 19456012.67891657, -4421394.27690645 ], [ 19456014.71139539, -4421384.25001094 ], [ 19456017.15036997, -4421384.25001094 ], [ 19456017.82786291, -4421381.54003918 ], [ 19456004.00700694, -4421378.28807307 ], [ 19456009.83344622, -4421353.76282865 ], [ 19456018.91185161, -4421353.35633289 ], [ 19456018.64085444, -4421349.15587667 ], [ 19456015.11789115, -4421349.15587667 ], [ 19456014.71139539, -4421338.72248539 ], [ 19456035.98467369, -4421337.77399528 ], [ 19456035.03618358, -4421316.50071697 ], [ 19456013.35640951, -4421317.04271133 ], [ 19456011.86592504, -4421274.66552795 ], [ 19456005.36199282, -4421274.53002936 ], [ 19456005.5320844, -4421266.84705431 ], [ 19455988.96666368, -4421267.61960138 ], [ 19455988.02370197, -4421234.70434431 ], [ 19455985.71469757, -4421234.72731916 ], [ 19455985.85019616, -4421243.94122314 ], [ 19455980.8367484, -4421243.94122314 ], [ 19455978.668771, -4421249.22566807 ], [ 19455973.24882748, -4421255.32310452 ], [ 19455966.3383995, -4421261.69153816 ], [ 19455961.18945315, -4421268.87296332 ], [ 19455957.39549269, -4421277.81587012 ], [ 19455956.1760054, -4421288.65575715 ], [ 19455952.65304212, -4421293.66920491 ], [ 19455932.5992511, -4421304.91558771 ], [ 19455927.72130194, -4421311.14852275 ], [ 19455922.03036124, -4421338.62086145 ], [ 19455920.94637254, -4421351.76422448 ], [ 19455924.46933582, -4421352.44171742 ], [ 19455925.14682876, -4421349.46074849 ], [ 19455928.1277977, -4421350.27374002 ], [ 19455927.85680052, -4421353.52570613 ], [ 19455932.19275534, -4421354.33869765 ], [ 19455929.48278358, -4421365.44958186 ], [ 19455932.05725675, -4421369.34516627 ], [ 19455930.56677228, -4421370.83565073 ], [ 19455934.63172992, -4421377.88157731 ], [ 19456012.67891657, -4421394.27690645 ] ] ] } },
{ "type": "Feature", "properties": { "fid": 8, "zone_type": "shops", "zone_name": "shops_lv1_6", "floor_level": 1 }, "geometry": { "type": "Polygon", "coordinates": [ [ [ 19456049.67003107, -4421340.8904628 ], [ 19456050.75401977, -4421374.49411261 ], [ 19456036.93316381, -4421374.76510978 ], [ 19456036.93316381, -4421361.75724534 ], [ 19456022.02831914, -4421363.11223122 ], [ 19456017.15036997, -4421384.25001094 ], [ 19456014.71139539, -4421384.25001094 ], [ 19456012.67891657, -4421394.27690645 ], [ 19456052.65100001, -4421402.13582455 ], [ 19456053.19299436, -4421404.8457963 ], [ 19456077.85373736, -4421409.18175112 ], [ 19456072.9757882, -4421335.74151646 ], [ 19456061.65404382, -4421335.8648354 ], [ 19456057.257952, -4421336.28351081 ], [ 19456056.71595765, -4421333.0315447 ], [ 19456049.3990339, -4421333.30254188 ], [ 19456049.67003107, -4421340.8904628 ] ] ] } },
{ "type": "Feature", "properties": { "fid": 9, "zone_type": "shops", "zone_name": "shops_lv1_8", "floor_level": 1 }, "geometry": { "type": "Polygon", "coordinates": [ [ [ 19456018.91185161, -4421353.35633289 ], [ 19456018.77635302, -4421356.87929618 ], [ 19456025.28028525, -4421356.608299 ], [ 19456025.28028525, -4421348.7493809 ], [ 19456036.66216663, -4421348.7493809 ], [ 19456035.98467369, -4421337.77399528 ], [ 19456014.71139539, -4421338.72248539 ], [ 19456015.11789115, -4421349.15587667 ], [ 19456018.64085444, -4421349.15587667 ], [ 19456018.91185161, -4421353.35633289 ] ] ] } },
{ "type": "Feature", "properties": { "fid": 10, "zone_type": "shops", "zone_name": "shops_lv1_9", "floor_level": 1 }, "geometry": { "type": "Polygon", "coordinates": [ [ [ 19456035.03618358, -4421316.50071697 ], [ 19456013.35640951, -4421317.04271133 ], [ 19456011.86592504, -4421274.66552795 ], [ 19456030.97122594, -4421274.49615472 ], [ 19456031.51322029, -4421295.63393443 ], [ 19456034.7651864, -4421298.61490337 ], [ 19456035.03618358, -4421316.50071697 ] ] ] } },
{ "type": "Feature", "properties": { "fid": 11, "zone_type": "shops", "zone_name": "HandM_lv1", "floor_level": 1 }, "geometry": { "type": "Polygon", "coordinates": [ [ [ 19455987.88267498, -4421229.7816207 ], [ 19455988.96666368, -4421267.61960138 ], [ 19456031.78421747, -4421265.55324791 ], [ 19456058.3419407, -4421232.22059528 ], [ 19455997.36757613, -4421216.50275908 ], [ 19455987.88267498, -4421229.7816207 ] ] ] } },
{ "type": "Feature", "properties": { "fid": 12, "zone_type": "shops", "zone_name": "shops_lv1_10", "floor_level": 1 }, "geometry": { "type": "Polygon", "coordinates": [ [ [ 19456048.04404802, -4421324.90162943 ], [ 19456045.87607061, -4421262.3012818 ], [ 19456068.63983338, -4421242.78948514 ], [ 19456073.24678537, -4421325.1726266 ], [ 19456048.45054378, -4421326.42598854 ], [ 19456048.04404802, -4421324.90162943 ] ] ] } },
{ "type": "Feature", "properties": { "fid": 13, "zone_type": "elevator", "zone_name": "elevator_lv1_1", "floor_level": 1 }, "geometry": { "type": "Polygon", "coordinates": [ [ [ 19456009.83344622, -4421353.76282865 ], [ 19456008.67497636, -4421358.63917854 ], [ 19456018.84410232, -4421358.09878347 ], [ 19456018.77635302, -4421356.87929618 ], [ 19456018.91185161, -4421353.35633289 ], [ 19456009.83344622, -4421353.76282865 ] ] ] } },
{ "type": "Feature", "properties": { "fid": 14, "zone_type": "escalator", "zone_name": "escalator_lv1_1", "floor_level": 1 }, "geometry": { "type": "Polygon", "coordinates": [ [ [ 19456025.28028525, -4421356.608299 ], [ 19456037.94940322, -4421356.81154688 ], [ 19456036.66216663, -4421348.7493809 ], [ 19456025.28028525, -4421348.7493809 ], [ 19456025.28028525, -4421356.608299 ] ] ] } },
{ "type": "Feature", "properties": { "fid": 15, "zone_type": "elevator", "zone_name": "elevator_lv1_2", "floor_level": 1 }, "geometry": { "type": "Polygon", "coordinates": [ [ [ 19456061.65404382, -4421335.8648354 ], [ 19456061.45840822, -4421332.11692923 ], [ 19456067.55584468, -4421332.11692923 ], [ 19456067.96234044, -4421335.74151646 ], [ 19456061.65404382, -4421335.8648354 ] ] ] } },
{ "type": "Feature", "properties": { "fid": 16, "zone_type": "shops", "zone_name": "shops_lv1_11", "floor_level": 1 }, "geometry": { "type": "Polygon", "coordinates": [ [ [ 19456042.89510167, -4421302.98473283 ], [ 19456042.48860591, -4421294.58382038 ], [ 19456038.42364827, -4421294.58382038 ], [ 19456038.83014404, -4421302.84923424 ], [ 19456042.89510167, -4421302.98473283 ] ] ] } },
{ "type": "Feature", "properties": { "fid": 17, "zone_type": "escalator", "zone_name": "escalator_lv1_2", "floor_level": 1 }, "geometry": { "type": "Polygon", "coordinates": [ [ [ 19456036.52666804, -4421284.55692487 ], [ 19456036.79766522, -4421294.17732461 ], [ 19456042.48860591, -4421294.58382038 ], [ 19456041.94661156, -4421284.42142628 ], [ 19456036.52666804, -4421284.55692487 ] ] ] } },
{ "type": "Feature", "properties": { "fid": 18, "zone_type": "escalator", "zone_name": "escalator_lv1_3", "floor_level": 1 }, "geometry": { "type": "Polygon", "coordinates": [ [ [ 19456060.23892093, -4421190.38540626 ], [ 19456054.27698306, -4421183.06848251 ], [ 19456062.00040257, -4421177.91953617 ], [ 19456066.06536021, -4421186.72694438 ], [ 19456060.23892093, -4421190.38540626 ] ] ] } },
{ "type": "Feature", "properties": { "fid": 19, "zone_type": "escalator", "zone_name": "escalator_lv_4", "floor_level": 1 }, "geometry": { "type": "Polygon", "coordinates": [ [ [ 19456034.96843429, -4421122.02636865 ], [ 19456037.0686624, -4421124.46534323 ], [ 19456044.9275805, -4421118.84215183 ], [ 19456043.43709603, -4421116.89435963 ], [ 19456034.96843429, -4421122.02636865 ] ] ] } },
{ "type": "Feature", "properties": { "fid": 20, "zone_type": "escalator", "zone_name": "escalator_lv1_5", "floor_level": 1 }, "geometry": { "type": "Polygon", "coordinates": [ [ [ 19456099.59513816, -4421080.26404997 ], [ 19456091.74234263, -4421088.30415757 ], [ 19456094.99430874, -4421092.36911521 ], [ 19456105.11048137, -4421085.77939319 ], [ 19456099.59513816, -4421080.26404997 ] ] ] } },
{ "type": "Feature", "properties": { "fid": 21, "zone_type": "escalator", "zone_name": "escalator_lv1_6", "floor_level": 1 }, "geometry": { "type": "Polygon", "coordinates": [ [ [ 19455959.90221657, -4421087.76216322 ], [ 19455958.13254994, -4421094.76990815 ], [ 19455944.45537755, -4421091.01412933 ], [ 19455945.3698001, -4421085.37084925 ], [ 19455959.90221657, -4421087.76216322 ] ] ] } },
{ "type": "Feature", "properties": { "fid": 22, "zone_type": "escalator", "zone_name": "escalator_lv1_7", "floor_level": 1 }, "geometry": { "type": "Polygon", "coordinates": [ [ [ 19455942.06746658, -4421117.93086899 ], [ 19455945.53936625, -4421106.18997118 ], [ 19455949.87532107, -4421107.54495706 ], [ 19455946.37078751, -4421119.13179576 ], [ 19455942.06746658, -4421117.93086899 ] ] ] } },
{ "type": "Feature", "properties": { "fid": 23, "zone_type": "elevator", "zone_name": "elevator_lv1_4", "floor_level": 1 }, "geometry": { "type": "Polygon", "coordinates": [ [ [ 19455965.55812696, -4421092.76089729 ], [ 19455969.47389267, -4421093.64386407 ], [ 19455966.67714597, -4421107.00296271 ], [ 19455962.20911334, -4421106.15695173 ], [ 19455965.55812696, -4421092.76089729 ] ] ] } },
{ "type": "Feature", "properties": { "fid": 24, "zone_type": "information", "zone_name": "info_desk_lv1", "floor_level": 1 }, "geometry": { "type": "Polygon", "coordinates": [ [ [ 19456002.71977035, -4421140.60661252 ], [ 19456003.80375906, -4421137.08364923 ], [ 19456006.78472799, -4421138.43863511 ], [ 19456006.24273364, -4421141.41960404 ], [ 19456002.71977035, -4421140.60661252 ] ] ] } },
{ "type": "Feature", "properties": { "fid": 25, "zone_type": "shops", "zone_name": "shops_lv_out1", "floor_level": 1 }, "geometry": { "type": "Polygon", "coordinates": [ [ [ 19456177.01674011, -4421090.88488193 ], [ 19456204.65845205, -4421096.8468198 ], [ 19456171.59679659, -4421227.46745856 ], [ 19456143.4130903, -4421219.87953764 ], [ 19456177.01674011, -4421090.88488193 ] ] ] } },
{ "type": "Feature", "properties": { "fid": 26, "zone_type": "shops", "zone_name": "shops_lv1_out2a", "floor_level": 1 }, "geometry": { "type": "Polygon", "coordinates": [ [ [ 19456209.92552661, -4421254.85460597 ], [ 19456201.25361698, -4421253.77061727 ], [ 19456197.45965652, -4421247.26668505 ], [ 19456197.73065369, -4421237.51078671 ], [ 19456218.05544188, -4421155.94063678 ], [ 19456237.83823572, -4421160.27659159 ], [ 19456230.52131197, -4421186.83431483 ], [ 19456227.81134021, -4421186.29232048 ], [ 19456209.92552661, -4421254.85460597 ] ] ] } },
{ "type": "Feature", "properties": { "fid": 27, "zone_type": "shops", "zone_name": "shops_lv1_out2b", "floor_level": 1 }, "geometry": { "type": "Polygon", "coordinates": [ [ [ 19456220.22341929, -4421148.62371303 ], [ 19456238.92222442, -4421153.23066502 ], [ 19456244.07117077, -4421130.19590507 ], [ 19456261.95698437, -4421130.46690225 ], [ 19456261.14399284, -4421112.85208582 ], [ 19456243.80017359, -4421096.32125809 ], [ 19456239.1932216, -4421095.50826656 ], [ 19456233.50228091, -4421096.59225527 ], [ 19456231.87629785, -4421101.74120161 ], [ 19456220.22341929, -4421148.62371303 ] ] ] } },
{ "type": "Feature", "properties": { "fid": 28, "zone_type": "parking", "zone_name": "parking_lv1_out", "floor_level": 1 }, "geometry": { "type": "Polygon", "coordinates": [ [ [ 19456220.22341929, -4421148.62371303 ], [ 19456218.05544188, -4421155.94063678 ], [ 19456237.83823572, -4421160.27659159 ], [ 19456230.52131197, -4421186.83431483 ], [ 19456227.81134021, -4421186.29232048 ], [ 19456226.07312116, -4421192.95549352 ], [ 19456227.26934586, -4421214.20502959 ], [ 19456223.20438822, -4421215.01802112 ], [ 19456225.10136845, -4421266.23648736 ], [ 19456267.37692789, -4421264.06850995 ], [ 19456263.04097307, -4421186.29232048 ], [ 19456263.8539646, -4421186.29232048 ], [ 19456261.95698437, -4421130.46690225 ], [ 19456244.07117077, -4421130.19590507 ], [ 19456238.92222442, -4421153.23066502 ], [ 19456220.22341929, -4421148.62371303 ] ] ] } },
{ "type": "Feature", "properties": { "fid": 29, "zone_type": "corridor", "zone_name": "corridor_lv1_2", "floor_level": 1 }, "geometry": { "type": "Polygon", "coordinates": [ [ [ 19456050.55564908, -4421241.99318578 ], [ 19456031.78421747, -4421265.55324791 ], [ 19456005.5320844, -4421266.84705431 ], [ 19456005.36199282, -4421274.53002936 ], [ 19456011.86592504, -4421274.66552795 ], [ 19456030.97122594, -4421274.49615472 ], [ 19456031.51322029, -4421295.63393443 ], [ 19456034.7651864, -4421298.61490337 ], [ 19456034.98989301, -4421313.44553948 ], [ 19456035.35751829, -4421323.70779551 ], [ 19456036.66216663, -4421348.7493809 ], [ 19456037.94940322, -4421356.81154688 ], [ 19456025.28028525, -4421356.608299 ], [ 19456018.77635302, -4421356.87929618 ], [ 19456018.84410232, -4421358.09878347 ], [ 19456008.67497636, -4421358.63917854 ], [ 19456004.00700694, -4421378.28807307 ], [ 19456017.82786291, -4421381.54003918 ], [ 19456022.02831914, -4421363.11223122 ], [ 19456036.93316381, -4421361.75724534 ], [ 19456036.93316381, -4421374.76510978 ], [ 19456050.75401977, -4421374.49411261 ], [ 19456049.3990339, -4421333.30254188 ], [ 19456056.71595765, -4421333.0315447 ], [ 19456057.257952, -4421336.28351081 ], [ 19456061.65404382, -4421335.8648354 ], [ 19456072.9757882, -4421335.74151646 ], [ 19456073.24678537, -4421325.1726266 ], [ 19456048.45054378, -4421326.42598854 ], [ 19456048.04404802, -4421324.90162943 ], [ 19456045.87607061, -4421262.3012818 ], [ 19456059.58175277, -4421250.55355423 ], [ 19456050.55564908, -4421241.99318578 ] ] ] } },
{ "type": "Feature", "properties": { "fid": 30, "zone_type": "corridor", "zone_name": "corridor_lv1_1", "floor_level": 1 }, "geometry": { "type": "Polygon", "coordinates": [ [ [ 19456075.08250165, -4421073.42093895 ], [ 19456083.25338048, -4421075.36152267 ], [ 19456079.37221304, -4421092.11182429 ], [ 19456080.59784486, -4421101.50833495 ], [ 19456080.39357289, -4421109.06639787 ], [ 19456066.70735084, -4421168.50954142 ], [ 19456066.85840027, -4421177.72355688 ], [ 19456066.91162281, -4421180.97013164 ], [ 19456074.6739577, -4421196.69907341 ], [ 19456063.4389993, -4421202.21441662 ], [ 19456058.33220003, -4421192.81790596 ], [ 19456009.306927, -4421154.41477542 ], [ 19455992.55662539, -4421146.8567125 ], [ 19455931.47930608, -4421131.12777074 ], [ 19455922.28706738, -4421167.48818156 ], [ 19455918.20162797, -4421166.46682171 ], [ 19455927.18959469, -4421135.82602607 ], [ 19455905.53676577, -4421130.51495482 ], [ 19455911.6649249, -4421104.98095846 ], [ 19455932.7049379, -4421110.2920297 ], [ 19455933.72629776, -4421115.60310095 ], [ 19455951.29368726, -4421120.50562825 ], [ 19455959.05602215, -4421091.2947364 ], [ 19455965.55812696, -4421092.76089729 ], [ 19455958.23893427, -4421122.03766803 ], [ 19455973.15078815, -4421126.53165139 ], [ 19456013.18809445, -4421124.89747562 ], [ 19456061.19200762, -4421097.72930349 ], [ 19456071.2013342, -4421085.6772572 ], [ 19456075.08250165, -4421073.42093895 ] ], [ [ 19456021.46110928, -4421144.50758483 ], [ 19456043.8288901, -4421162.48351828 ], [ 19456050.1613212, -4421162.48351828 ], [ 19456056.39161631, -4421158.70448681 ], [ 19456060.27278376, -4421154.51691141 ], [ 19456062.00909551, -4421147.5716644 ], [ 19456064.56249515, -4421148.18448031 ], [ 19456067.11589478, -4421136.84738592 ], [ 19456065.17531106, -4421136.336706 ], [ 19456069.97570238, -4421116.01164489 ], [ 19456068.64793457, -4421113.66251722 ], [ 19456065.37958303, -4421113.56038124 ], [ 19456021.86965322, -4421140.11573746 ], [ 19456021.46110928, -4421144.50758483 ] ] ] } },
{ "type": "Feature", "properties": { "fid": 31, "zone_type": "shops", "zone_name": "shops_lv1_3", "floor_level": 1 }, "geometry": { "type": "Polygon", "coordinates": [ [ [ 19455897.90200439, -4421161.71771224 ], [ 19455905.53676577, -4421130.51495482 ], [ 19455927.18959469, -4421135.82602607 ], [ 19455918.20162797, -4421166.46682171 ], [ 19455897.90200439, -4421161.71771224 ] ] ] } },
{ "type": "Feature", "properties": { "fid": 32, "zone_type": "shops", "zone_name": "shops_lv1_3", "floor_level": 1 }, "geometry": { "type": "Polygon", "coordinates": [ [ [ 19455911.6649249, -4421104.98095846 ], [ 19455918.471183, -4421078.38278685 ], [ 19455945.3698001, -4421085.37084925 ], [ 19455944.34844024, -4421087.61784093 ], [ 19455959.05602215, -4421091.2947364 ], [ 19455951.29368726, -4421120.50562825 ], [ 19455933.72629776, -4421115.60310095 ], [ 19455932.7049379, -4421113.15183729 ], [ 19455932.7049379, -4421110.2920297 ], [ 19455911.6649249, -4421104.98095846 ] ] ] } },
{ "type": "Feature", "properties": { "fid": 33, "zone_type": "parking", "zone_name": "parking_lv2_1", "floor_level": 2 }, "geometry": { "type": "Polygon", "coordinates": [ [ [ 19455846.87138956, -4421065.50491511 ], [ 19455874.64860009, -4421073.77032897 ], [ 19455875.5970902, -4421069.29887557 ], [ 19455999.1718024, -4421100.73454797 ], [ 19456010.01168943, -4421056.42650972 ], [ 19455870.71914104, -4421020.79038109 ], [ 19455867.7381721, -4421020.79038109 ], [ 19455863.2667187, -4421022.55186273 ], [ 19455856.89828506, -4421030.54627942 ], [ 19455853.51082037, -4421038.94719187 ], [ 19455846.87138956, -4421065.50491511 ] ] ] } },
{ "type": "Feature", "properties": { "fid": 34, "zone_type": "shops", "zone_name": "DavidJones_lv2", "floor_level": 2 }, "geometry": { "type": "Polygon", "coordinates": [ [ [ 19455846.87138956, -4421065.50491511 ], [ 19455844.43241498, -4421076.48030073 ], [ 19455848.6328712, -4421077.49654014 ], [ 19455830.88255618, -4421145.27970876 ], [ 19455875.12284514, -4421156.91565 ], [ 19455876.81657749, -4421150.20846989 ], [ 19455886.16598006, -4421143.4335405 ], [ 19455901.13857403, -4421147.02425308 ], [ 19455918.09724758, -4421080.11031912 ], [ 19455875.5970902, -4421069.29887557 ], [ 19455874.64860009, -4421073.77032897 ], [ 19455846.87138956, -4421065.50491511 ] ] ] } },
{ "type": "Feature", "properties": { "fid": 35, "zone_type": "shops", "zone_name": "shops_lv2_1", "floor_level": 2 }, "geometry": { "type": "Polygon", "coordinates": [ [ [ 19455875.12284514, -4421156.91565 ], [ 19455874.98734655, -4421159.11750205 ], [ 19456034.19818738, -4421198.41209255 ], [ 19456036.50166338, -4421189.19818857 ], [ 19456034.74018173, -4421179.30679165 ], [ 19456029.59123539, -4421170.77038061 ], [ 19456021.5968187, -4421163.99545122 ], [ 19456012.51841331, -4421157.35602041 ], [ 19456000.3235404, -4421150.17459525 ], [ 19455987.04467878, -4421145.83864043 ], [ 19455941.65265182, -4421134.05026328 ], [ 19455932.84524361, -4421167.78941168 ], [ 19455929.99977326, -4421166.02793004 ], [ 19455938.26518712, -4421133.10177317 ], [ 19455932.03225208, -4421134.18576187 ], [ 19455923.76683822, -4421134.9987534 ], [ 19455905.38571854, -4421130.26627099 ], [ 19455901.13857403, -4421147.02425308 ], [ 19455886.16598006, -4421143.4335405 ], [ 19455876.81657749, -4421150.20846989 ], [ 19455875.12284514, -4421156.91565 ] ] ] } },
{ "type": "Feature", "properties": { "fid": 36, "zone_type": "shops", "zone_name": "shops_lv2_2", "floor_level": 2 }, "geometry": { "type": "Polygon", "coordinates": [ [ [ 19455911.51348078, -4421106.08792494 ], [ 19455933.11624078, -4421111.45587374 ], [ 19455943.0076377, -4421118.50180032 ], [ 19455947.20809392, -4421102.78396412 ], [ 19455956.55749649, -4421104.27444858 ], [ 19455960.13175036, -4421090.80330666 ], [ 19455918.09724758, -4421080.11031912 ], [ 19455911.51348078, -4421106.08792494 ] ] ] } },
{ "type": "Feature", "properties": { "fid": 37, "zone_type": "escalator", "zone_name": "escalator_lv2_1", "floor_level": 2 }, "geometry": { "type": "Polygon", "coordinates": [ [ [ 19455947.20809392, -4421102.78396412 ], [ 19455956.55749649, -4421104.27444858 ], [ 19455952.08604309, -4421120.39878055 ], [ 19455943.0076377, -4421118.50180032 ], [ 19455947.20809392, -4421102.78396412 ] ] ] } },
{ "type": "Feature", "properties": { "fid": 38, "zone_type": "elevator", "zone_name": "elevator_lv2_1", "floor_level": 2 }, "geometry": { "type": "Polygon", "coordinates": [ [ [ 19455965.63867071, -4421092.20418991 ], [ 19455962.38393577, -4421106.03593023 ], [ 19455967.12638635, -4421106.84892175 ], [ 19455969.71555559, -4421093.24129221 ], [ 19455965.63867071, -4421092.20418991 ] ] ] } },
{ "type": "Feature", "properties": { "fid": 39, "zone_type": "shops", "zone_name": "shops_lv2_3", "floor_level": 2 }, "geometry": { "type": "Polygon", "coordinates": [ [ [ 19455962.38393577, -4421106.03593023 ], [ 19455958.04798096, -4421122.0247636 ], [ 19455962.24843718, -4421123.92174383 ], [ 19456000.18804181, -4421133.13564781 ], [ 19456005.20148956, -4421132.32265629 ], [ 19456078.7772228, -4421089.36960391 ], [ 19456087.72012961, -4421091.40208273 ], [ 19456096.93403359, -4421086.38863498 ], [ 19456099.102011, -4421089.23410532 ], [ 19456090.29460278, -4421094.92504602 ], [ 19456087.94185684, -4421102.036369 ], [ 19456084.73916068, -4421111.59137233 ], [ 19456080.67420304, -4421125.68322548 ], [ 19456079.86121151, -4421140.72356874 ], [ 19456075.52525669, -4421152.47807124 ], [ 19456069.42782024, -4421160.74348511 ], [ 19456067.12434424, -4421171.71887073 ], [ 19456068.47933012, -4421175.64832978 ], [ 19456068.47933012, -4421179.44229024 ], [ 19456066.98884565, -4421184.82835911 ], [ 19456063.0593866, -4421187.94482663 ], [ 19456058.85893038, -4421189.29981251 ], [ 19456055.20046851, -4421189.16431392 ], [ 19456050.59351651, -4421188.08032522 ], [ 19456048.5610377, -4421187.94482663 ], [ 19456047.07055323, -4421189.02881534 ], [ 19456045.85106594, -4421192.00978427 ], [ 19456043.81858712, -4421200.81719249 ], [ 19456060.62041202, -4421205.96613883 ], [ 19456063.60138096, -4421204.47565436 ], [ 19456065.22736401, -4421207.05012753 ], [ 19456078.7772228, -4421199.19120943 ], [ 19456077.28673834, -4421196.2102405 ], [ 19456080.67420304, -4421194.58425744 ], [ 19456106.14793757, -4421094.75567278 ], [ 19456104.25095734, -4421093.94268125 ], [ 19456106.55443333, -4421090.0132222 ], [ 19456106.41893474, -4421086.08376315 ], [ 19456104.92845028, -4421082.83179704 ], [ 19456102.76047287, -4421081.20581399 ], [ 19456099.91500252, -4421079.9863267 ], [ 19456095.7145463, -4421079.71532952 ], [ 19456096.25654065, -4421078.36034364 ], [ 19456010.01168943, -4421056.42650972 ], [ 19455999.1718024, -4421100.73454797 ], [ 19455969.71555559, -4421093.24129221 ], [ 19455967.12638635, -4421106.84892175 ], [ 19455962.38393577, -4421106.03593023 ] ] ] } },
{ "type": "Feature", "properties": { "fid": 40, "zone_type": "escalator", "zone_name": "escalator_lv2_2", "floor_level": 2 }, "geometry": { "type": "Polygon", "coordinates": [ [ [ 19456028.64274528, -4421125.61547618 ], [ 19456041.24411396, -4421118.29855244 ], [ 19456042.73459842, -4421121.27952137 ], [ 19456030.6752241, -4421128.32544794 ], [ 19456028.64274528, -4421125.61547618 ] ] ] } },
{ "type": "Feature", "properties": { "fid": 41, "zone_type": "escalator", "zone_name": "escalator_lv2_3", "floor_level": 2 }, "geometry": { "type": "Polygon", "coordinates": [ [ [ 19456024.71328622, -4421155.01866977 ], [ 19456022.95180458, -4421157.32214576 ], [ 19456034.46918456, -4421166.53604974 ], [ 19456036.2306662, -4421164.23257374 ], [ 19456024.71328622, -4421155.01866977 ] ] ] } },
{ "type": "Feature", "properties": { "fid": 42, "zone_type": "escalator", "zone_name": "escalator_lv2_4", "floor_level": 2 }, "geometry": { "type": "Polygon", "coordinates": [ [ [ 19456087.72012961, -4421091.40208273 ], [ 19456090.29460278, -4421094.92504602 ], [ 19456099.102011, -4421089.23410532 ], [ 19456096.93403359, -4421086.38863498 ], [ 19456087.72012961, -4421091.40208273 ] ] ] } },
{ "type": "Feature", "properties": { "fid": 43, "zone_type": "escalator", "zone_name": "escalator_lv2_5", "floor_level": 2 }, "geometry": { "type": "Polygon", "coordinates": [ [ [ 19456056.96195015, -4421184.9638577 ], [ 19456058.85893038, -4421184.15086617 ], [ 19456050.59351652, -4421175.61445513 ], [ 19456048.5610377, -4421176.96944101 ], [ 19456056.96195015, -4421184.9638577 ] ] ] } },
{ "type": "Feature", "properties": { "fid": 44, "zone_type": "escalator", "zone_name": "escalator_lv2_6", "floor_level": 2 }, "geometry": { "type": "Polygon", "coordinates": [ [ [ 19456061.83989932, -4421182.11838735 ], [ 19456063.05938661, -4421181.03439865 ], [ 19456058.99442898, -4421170.60100738 ], [ 19456057.09744874, -4421171.00750314 ], [ 19456061.83989932, -4421182.11838735 ] ] ] } },
{ "type": "Feature", "properties": { "fid": 45, "zone_type": "shops", "zone_name": "shops_lv2_4", "floor_level": 2 }, "geometry": { "type": "Polygon", "coordinates": [ [ [ 19456050.72901511, -4421168.02653421 ], [ 19456060.48491344, -4421164.23257374 ], [ 19456072.81528494, -4421116.4015722 ], [ 19456071.18930189, -4421113.96259762 ], [ 19456068.20833295, -4421113.42060327 ], [ 19456023.49379893, -4421139.30083357 ], [ 19456022.40981023, -4421143.63678838 ], [ 19456023.08730317, -4421146.34676014 ], [ 19456050.72901511, -4421168.02653421 ] ] ] } },
{ "type": "Feature", "properties": { "fid": 46, "zone_type": "seats", "zone_name": "seats_lv2_1", "floor_level": 2 }, "geometry": { "type": "Polygon", "coordinates": [ [ [ 19455914.41743565, -4421122.49900866 ], [ 19455915.50142435, -4421117.6210595 ], [ 19455918.61789187, -4421115.58858068 ], [ 19455921.05686646, -4421114.64009056 ], [ 19455923.49584104, -4421115.04658632 ], [ 19455927.69629727, -4421117.35006232 ], [ 19455934.20022948, -4421121.55051855 ], [ 19455934.60672525, -4421124.53148748 ], [ 19455934.20022948, -4421126.15747054 ], [ 19455932.16775066, -4421126.97046206 ], [ 19455919.15988622, -4421127.37695783 ], [ 19455916.0434187, -4421125.4799776 ], [ 19455914.41743565, -4421122.49900866 ] ] ] } },
{ "type": "Feature", "properties": { "fid": 47, "zone_type": "seats", "zone_name": "seats_lv2_2", "floor_level": 2 }, "geometry": { "type": "Polygon", "coordinates": [ [ [ 19455999.37505028, -4421139.84282792 ], [ 19456001.00103334, -4421137.94584769 ], [ 19456004.11750086, -4421136.86185898 ], [ 19456012.38291472, -4421137.53935192 ], [ 19456015.77037942, -4421138.75883921 ], [ 19456018.07385541, -4421142.41730109 ], [ 19456017.93835683, -4421146.07576296 ], [ 19456015.09288648, -4421149.19223048 ], [ 19456011.29892602, -4421150.00522201 ], [ 19456007.23396838, -4421149.0567319 ], [ 19456001.94952345, -4421145.94026437 ], [ 19455999.64604746, -4421143.23029262 ], [ 19455999.37505028, -4421141.60430956 ], [ 19455999.37505028, -4421139.84282792 ] ] ] } },
{ "type": "Feature", "properties": { "fid": 48, "zone_type": "seats", "zone_name": "seats_lv2_3", "floor_level": 2 }, "geometry": { "type": "Polygon", "coordinates": [ [ [ 19455956.21875002, -4421126.63171559 ], [ 19455990.56764206, -4421135.64237169 ], [ 19455988.80616042, -4421141.80755744 ], [ 19455954.79601485, -4421132.86465064 ], [ 19455956.21875002, -4421126.63171559 ] ] ] } },
{ "type": "Feature", "properties": { "fid": 49, "zone_type": "parking", "zone_name": "parking_lv2_2", "floor_level": 2 }, "geometry": { "type": "Polygon", "coordinates": [ [ [ 19456009.40194578, -4421352.20298986 ], [ 19455858.05002306, -4421319.54783016 ], [ 19455847.75213038, -4421316.8378584 ], [ 19455837.18324052, -4421318.59934005 ], [ 19455830.47606041, -4421324.96777368 ], [ 19455827.08859571, -4421332.96219037 ], [ 19455826.81759854, -4421340.95660706 ], [ 19455829.39207171, -4421348.13803222 ], [ 19455837.79298416, -4421355.45495597 ], [ 19455849.85235849, -4421360.46840372 ], [ 19455870.58364244, -4421365.61735006 ], [ 19455994.90359688, -4421392.00570006 ], [ 19455996.12308417, -4421385.36626925 ], [ 19456002.35601921, -4421386.31475937 ], [ 19456009.40194578, -4421352.20298986 ] ] ] } },
{ "type": "Feature", "properties": { "fid": 50, "zone_type": "escalator", "zone_name": "escalator_lv2_7", "floor_level": 2 }, "geometry": { "type": "Polygon", "coordinates": [ [ [ 19456022.27431164, -4421357.31806155 ], [ 19456022.27431164, -4421350.0011378 ], [ 19456032.97870009, -4421349.73014063 ], [ 19456032.97870009, -4421357.04706438 ], [ 19456022.27431164, -4421357.31806155 ] ] ] } },
{ "type": "Feature", "properties": { "fid": 51, "zone_type": "shops", "zone_name": "shops_lv2_6", "floor_level": 2 }, "geometry": { "type": "Polygon", "coordinates": [ [ [ 19456007.05496071, -4421363.56555704 ], [ 19456019.56433988, -4421363.5509966 ], [ 19456015.49938225, -4421385.50176784 ], [ 19456017.39636248, -4421385.63726643 ], [ 19456021.05482435, -4421364.09299095 ], [ 19456034.19818738, -4421363.5509966 ], [ 19456034.87568032, -4421384.41777914 ], [ 19456051.40650805, -4421383.7402862 ], [ 19456046.25756171, -4421263.14654294 ], [ 19456068.7503273, -4421243.3637491 ], [ 19456072.137792, -4421320.05594987 ], [ 19456069.56331883, -4421320.05594987 ], [ 19456069.83431601, -4421327.77936938 ], [ 19456065.09186543, -4421328.05036656 ], [ 19456065.36286261, -4421336.85777477 ], [ 19456073.08628212, -4421336.72227618 ], [ 19456073.76377506, -4421355.72595314 ], [ 19456073.22178071, -4421355.59045456 ], [ 19456073.22178071, -4421362.09438678 ], [ 19456074.98326235, -4421362.09438678 ], [ 19456076.06725105, -4421383.09666791 ], [ 19456077.01574117, -4421383.50316367 ], [ 19456077.28673834, -4421411.95786714 ], [ 19456041.10861536, -4421403.55695468 ], [ 19456041.51511113, -4421401.93097163 ], [ 19455994.90359688, -4421392.00570006 ], [ 19455996.12308417, -4421385.36626925 ], [ 19456002.35601921, -4421386.31475937 ], [ 19456007.05496071, -4421363.56555704 ] ] ] } },
{ "type": "Feature", "properties": { "fid": 52, "zone_type": "shops", "zone_name": "shos_lv_8", "floor_level": 2 }, "geometry": { "type": "Polygon", "coordinates": [ [ [ 19456044.36058147, -4421229.17027201 ], [ 19456059.19767685, -4421233.30297895 ], [ 19456043.41209136, -4421250.91779538 ], [ 19456041.71835901, -4421249.02081515 ], [ 19456044.36058147, -4421229.17027201 ] ] ] } },
{ "type": "Feature", "properties": { "fid": 53, "zone_type": "shops", "zone_name": "HandM_lv2", "floor_level": 2 }, "geometry": { "type": "Polygon", "coordinates": [ [ [ 19456035.95966902, -4421226.93454531 ], [ 19455996.93607569, -4421217.17864698 ], [ 19455988.80616042, -4421228.83152555 ], [ 19455976.06929315, -4421229.3735199 ], [ 19455962.51943436, -4421256.74423466 ], [ 19455986.63818301, -4421255.66024596 ], [ 19455986.36718583, -4421265.41614429 ], [ 19456005.06599097, -4421264.87414994 ], [ 19456005.06599097, -4421259.99620077 ], [ 19456030.81072268, -4421258.64121489 ], [ 19456035.95966902, -4421226.93454531 ] ] ] } },
{ "type": "Feature", "properties": { "fid": 54, "zone_type": "shops", "zone_name": "Farmers_lv2", "floor_level": 2 }, "geometry": { "type": "Polygon", "coordinates": [ [ [ 19455962.51943436, -4421256.74423466 ], [ 19455957.64148519, -4421263.24816688 ], [ 19455941.65265181, -4421303.89774326 ], [ 19455933.9970112, -4421335.9338858 ], [ 19456007.42872134, -4421351.77725387 ], [ 19456008.1824585, -4421350.33988428 ], [ 19456013.06040766, -4421350.0688871 ], [ 19456012.24741613, -4421328.52461162 ], [ 19456032.30120715, -4421327.71162009 ], [ 19456031.7592128, -4421306.98033614 ], [ 19456009.13094861, -4421307.52233049 ], [ 19456006.96297121, -4421272.29269763 ], [ 19456002.62701639, -4421271.88620186 ], [ 19456002.76251498, -4421269.31172869 ], [ 19456006.14997968, -4421268.49873716 ], [ 19456005.06599097, -4421264.87414994 ], [ 19455986.36718583, -4421265.41614429 ], [ 19455986.63818301, -4421255.66024596 ], [ 19455962.51943436, -4421256.74423466 ] ] ] } },
{ "type": "Feature", "properties": { "fid": 55, "zone_type": "elevator", "zone_name": "elevator_lv2_2", "floor_level": 2 }, "geometry": { "type": "Polygon", "coordinates": [ [ [ 19456005.06599097, -4421264.87414994 ], [ 19456013.06040766, -4421264.43377952 ], [ 19456012.38291472, -4421267.95674281 ], [ 19456006.14997968, -4421268.49873716 ], [ 19456005.06599097, -4421264.87414994 ] ] ] } },
{ "type": "Feature", "properties": { "fid": 56, "zone_type": "shops", "zone_name": "shops_lv2_10", "floor_level": 2 }, "geometry": { "type": "Polygon", "coordinates": [ [ [ 19456006.96297121, -4421272.29269763 ], [ 19456029.5912354, -4421270.53121598 ], [ 19456031.7592128, -4421306.98033614 ], [ 19456009.13094861, -4421307.52233049 ], [ 19456006.96297121, -4421272.29269763 ] ] ] } },
{ "type": "Feature", "properties": { "fid": 57, "zone_type": "elevator", "zone_name": "elevator_lv2_3", "floor_level": 2 }, "geometry": { "type": "Polygon", "coordinates": [ [ [ 19456007.42872134, -4421351.77725387 ], [ 19456008.1824585, -4421350.33988428 ], [ 19456013.06040766, -4421350.0688871 ], [ 19456015.77037943, -4421350.20438569 ], [ 19456015.77037943, -4421357.79230661 ], [ 19456008.36412881, -4421357.22742106 ], [ 19456009.40194578, -4421352.20298986 ], [ 19456007.42872134, -4421351.77725387 ] ] ] } },
{ "type": "Feature", "properties": { "fid": 58, "zone_type": "shops", "zone_name": "shops_lv2_11", "floor_level": 2 }, "geometry": { "type": "Polygon", "coordinates": [ [ [ 19456015.77037943, -4421357.79230661 ], [ 19456022.27431164, -4421357.31806155 ], [ 19456022.27431164, -4421350.0011378 ], [ 19456032.97870009, -4421349.73014063 ], [ 19456032.30120715, -4421327.71162009 ], [ 19456012.24741613, -4421328.52461162 ], [ 19456013.06040766, -4421350.0688871 ], [ 19456015.77037943, -4421350.20438569 ], [ 19456015.77037943, -4421357.79230661 ] ] ] } },
{ "type": "Feature", "properties": { "fid": 59, "zone_type": "shops", "zone_name": "shops_lv2_12", "floor_level": 2 }, "geometry": { "type": "Polygon", "coordinates": [ [ [ 19456030.81072268, -4421258.64121489 ], [ 19456030.26872834, -4421265.99201329 ], [ 19456012.7057145, -4421266.27818398 ], [ 19456013.06040766, -4421264.43377952 ], [ 19456005.06599097, -4421264.87414994 ], [ 19456005.06599097, -4421259.99620077 ], [ 19456030.81072268, -4421258.64121489 ] ] ] } },
{ "type": "Feature", "properties": { "fid": 60, "zone_type": "escalator", "zone_name": "escalator_lv_8", "floor_level": 2 }, "geometry": { "type": "Polygon", "coordinates": [ [ [ 19456034.87568035, -4421271.88620186 ], [ 19456042.05710551, -4421271.4797061 ], [ 19456042.87009704, -4421296.1404491 ], [ 19456035.55317329, -4421296.27594769 ], [ 19456034.87568035, -4421271.88620186 ] ] ] } },
{ "type": "Feature", "properties": { "fid": 61, "zone_type": "seats", "zone_name": "seats_lv2_4", "floor_level": 2 }, "geometry": { "type": "Polygon", "coordinates": [ [ [ 19456036.23066623, -4421299.46016451 ], [ 19456042.46360128, -4421299.39241521 ], [ 19456042.93784633, -4421319.24295835 ], [ 19456036.637162, -4421319.17520905 ], [ 19456036.23066623, -4421299.46016451 ] ] ] } },
{ "type": "Feature", "properties": { "fid": 62, "zone_type": "seats", "zone_name": "seats_lv2_5", "floor_level": 2 }, "geometry": { "type": "Polygon", "coordinates": [ [ [ 19456037.7211507, -4421332.38632138 ], [ 19456044.36058151, -4421332.25082279 ], [ 19456044.36058151, -4421347.69766181 ], [ 19456038.39864364, -4421347.8331604 ], [ 19456037.7211507, -4421332.38632138 ] ] ] } },
{ "type": "Feature", "properties": { "fid": 63, "zone_type": "corridor", "zone_name": "corridor_lv2", "floor_level": 2 }, "geometry": { "type": "Polygon", "coordinates": [ [ [ 19456051.58870063, -4421241.79368203 ], [ 19456060.43382146, -4421250.67826628 ], [ 19456046.25756171, -4421263.14654294 ], [ 19456051.40650805, -4421383.7402862 ], [ 19456034.87568032, -4421384.41777914 ], [ 19456034.19818738, -4421363.5509966 ], [ 19456021.05482435, -4421364.09299095 ], [ 19456017.39636248, -4421385.63726643 ], [ 19456015.49938225, -4421385.50176784 ], [ 19456019.56433988, -4421363.5509966 ], [ 19456007.05496071, -4421363.56555704 ], [ 19456008.36412881, -4421357.22742106 ], [ 19456015.77037943, -4421357.79230661 ], [ 19456022.31171343, -4421357.29226673 ], [ 19456032.97870009, -4421357.04706438 ], [ 19456031.73807316, -4421307.00653594 ], [ 19456029.5912354, -4421270.53121598 ], [ 19456006.96297121, -4421272.29269763 ], [ 19456002.62701639, -4421271.88620186 ], [ 19456002.76251498, -4421269.31172869 ], [ 19456012.38291472, -4421267.95674281 ], [ 19456012.7057145, -4421266.27818398 ], [ 19456030.26872834, -4421265.99201329 ], [ 19456030.88757453, -4421258.54583343 ], [ 19456035.95966902, -4421226.93454531 ], [ 19456034.19818738, -4421198.41209255 ], [ 19456036.50166338, -4421189.19818857 ], [ 19456034.74018173, -4421179.30679165 ], [ 19456029.93771678, -4421171.34481029 ], [ 19456021.5968187, -4421163.99545122 ], [ 19456011.17724561, -4421156.56622165 ], [ 19456000.3235404, -4421150.17459525 ], [ 19455984.86448302, -4421145.27244034 ], [ 19455941.65265182, -4421134.05026328 ], [ 19455932.84524361, -4421167.78941168 ], [ 19455929.99977326, -4421166.02793004 ], [ 19455938.26518712, -4421133.10177317 ], [ 19455931.34639235, -4421134.25322348 ], [ 19455923.76683822, -4421134.9987534 ], [ 19455905.38571854, -4421130.26627099 ], [ 19455911.51348078, -4421106.08792494 ], [ 19455933.11624078, -4421111.45587374 ], [ 19455943.0076377, -4421118.50180032 ], [ 19455952.08604309, -4421120.39878055 ], [ 19455956.55749649, -4421104.27444858 ], [ 19455960.13175036, -4421090.80330666 ], [ 19455965.63867071, -4421092.20418991 ], [ 19455962.38035383, -4421106.02640353 ], [ 19455958.04798096, -4421122.0247636 ], [ 19455962.24843718, -4421123.92174383 ], [ 19456000.18804181, -4421133.13564781 ], [ 19456005.20148956, -4421132.32265629 ], [ 19456078.7772228, -4421089.36960391 ], [ 19456087.72012961, -4421091.40208273 ], [ 19456090.29460278, -4421094.92504602 ], [ 19456084.73916068, -4421111.59137233 ], [ 19456080.67420304, -4421125.68322548 ], [ 19456079.86121151, -4421140.72356874 ], [ 19456075.52525669, -4421152.47807124 ], [ 19456069.42782024, -4421160.74348511 ], [ 19456067.12434424, -4421171.71887073 ], [ 19456068.47933012, -4421175.64832978 ], [ 19456068.47933012, -4421179.44229024 ], [ 19456066.98884565, -4421184.82835911 ], [ 19456063.0593866, -4421187.94482663 ], [ 19456058.85893038, -4421189.29981251 ], [ 19456055.20046851, -4421189.16431392 ], [ 19456050.59351651, -4421188.08032522 ], [ 19456048.5610377, -4421187.94482663 ], [ 19456046.49534374, -4421190.43488297 ], [ 19456043.81858712, -4421200.81719249 ], [ 19456044.36058147, -4421229.17027201 ], [ 19456041.71835901, -4421249.02081515 ], [ 19456043.41209136, -4421250.91779538 ], [ 19456051.58870063, -4421241.79368203 ] ], [ [ 19456022.40981023, -4421143.63678838 ], [ 19456023.08730317, -4421146.34676014 ], [ 19456050.72901511, -4421168.02653421 ], [ 19456054.55912067, -4421166.53704871 ], [ 19456060.48491344, -4421164.23257374 ], [ 19456071.61799372, -4421121.0460096 ], [ 19456072.81528494, -4421116.4015722 ], [ 19456071.18930189, -4421113.96259762 ], [ 19456068.20833295, -4421113.42060327 ], [ 19456066.88233072, -4421114.18807729 ], [ 19456039.70962633, -4421129.91530922 ], [ 19456023.49379893, -4421139.30083357 ], [ 19456022.40981023, -4421143.63678838 ] ] ] } },
{ "type": "Feature", "properties": { "fid": 64, "zone_type": "parking", "zone_name": "parking_lv3_1", "floor_level": 3 }, "geometry": { "type": "Polygon", "coordinates": [ [ [ 19455999.93585972, -4421347.02935174 ], [ 19455855.65111997, -4421317.58348649 ], [ 19455842.80201513, -4421317.58348649 ], [ 19455834.23594523, -4421324.54341828 ], [ 19455829.95291029, -4421332.5741088 ], [ 19455831.02366903, -4421343.28169617 ], [ 19455837.71591113, -4421351.04469701 ], [ 19455851.6357747, -4421357.73693911 ], [ 19456008.7696193, -4421390.12739089 ], [ 19456010.64344709, -4421382.09670037 ], [ 19456005.02196373, -4421380.75825195 ], [ 19456005.02196373, -4421382.09670037 ], [ 19455996.9912732, -4421379.9551829 ], [ 19456002.0773772, -4421356.13080101 ], [ 19455999.93585972, -4421347.02935174 ] ] ] } },
{ "type": "Feature", "properties": { "fid": 65, "zone_type": "parking", "zone_name": "parking_lv3_2", "floor_level": 3 }, "geometry": { "type": "Polygon", "coordinates": [ [ [ 19456025.09869005, -4421104.23480821 ], [ 19456035.00320836, -4421061.67214843 ], [ 19455867.96484545, -4421020.98331644 ], [ 19455864.21718987, -4421021.78638549 ], [ 19455859.66646524, -4421026.60479981 ], [ 19455855.11574061, -4421032.76166254 ], [ 19455846.8173604, -4421066.49056275 ], [ 19455873.58632881, -4421073.45049454 ], [ 19455874.92477724, -4421068.89976991 ], [ 19455966.47464922, -4421092.45646211 ], [ 19455967.81309764, -4421089.51187558 ], [ 19456025.09869005, -4421104.23480821 ] ] ] } },
{ "type": "Feature", "properties": { "fid": 66, "zone_type": "office", "zone_name": "office_lv3", "floor_level": 3 }, "geometry": { "type": "Polygon", "coordinates": [ [ [ 19456025.09869005, -4421104.23480821 ], [ 19456034.0714775, -4421065.67607294 ], [ 19456092.55649045, -4421080.94580569 ], [ 19456099.78411192, -4421092.18877243 ], [ 19456087.73807614, -4421140.64060526 ], [ 19456091.7534214, -4421141.17598463 ], [ 19456090.95035235, -4421145.19132989 ], [ 19456051.59996878, -4421136.62526 ], [ 19456052.13534814, -4421135.28681158 ], [ 19456045.71079573, -4421133.1452941 ], [ 19456046.78155446, -4421129.93301789 ], [ 19456045.71079573, -4421129.66532821 ], [ 19456050.79689972, -4421110.92705032 ], [ 19456025.09869005, -4421104.23480821 ] ] ] } },
{ "type": "Feature", "properties": { "fid": 67, "zone_type": "shops", "zone_name": "Woolworths_lv3", "floor_level": 3 }, "geometry": { "type": "Polygon", "coordinates": [ [ [ 19455846.8173604, -4421066.49056275 ], [ 19455827.54370314, -4421145.45901957 ], [ 19455875.19246692, -4421157.23736568 ], [ 19455876.53091534, -4421149.74205452 ], [ 19455885.90005429, -4421143.04981242 ], [ 19455900.8906766, -4421145.99439894 ], [ 19455917.6223079, -4421079.88626902 ], [ 19455874.92477724, -4421068.89976991 ], [ 19455873.58632881, -4421073.45049454 ], [ 19455846.8173604, -4421066.49056275 ] ] ] } },
{ "type": "Feature", "properties": { "fid": 68, "zone_type": "shops", "zone_name": "JBHiFi_lv3", "floor_level": 3 }, "geometry": { "type": "Polygon", "coordinates": [ [ [ 19455997.12511805, -4421214.45603566 ], [ 19456036.74319131, -4421225.16362303 ], [ 19456034.06629447, -4421238.81579692 ], [ 19455984.81139259, -4421240.9573144 ], [ 19455974.90687427, -4421261.30173039 ], [ 19455975.17456396, -4421263.71093755 ], [ 19455958.04242417, -4421263.71093755 ], [ 19455976.78070206, -4421227.84051987 ], [ 19455988.82673785, -4421227.3051405 ], [ 19455997.12511805, -4421214.45603566 ] ] ] } },
{ "type": "Feature", "properties": { "fid": 69, "zone_type": "shops", "zone_name": "RebelSport", "floor_level": 3 }, "geometry": { "type": "Polygon", "coordinates": [ [ [ 19456031.65708731, -4421292.62142344 ], [ 19456031.38939763, -4421278.70155986 ], [ 19456006.49425701, -4421279.50462891 ], [ 19456006.49425701, -4421273.88314555 ], [ 19455990.43287595, -4421273.88314555 ], [ 19455988.02366879, -4421263.71093755 ], [ 19455975.17456396, -4421263.71093755 ], [ 19455958.04242417, -4421263.71093755 ], [ 19455944.65793996, -4421296.90445838 ], [ 19455951.88556144, -4421297.17214807 ], [ 19456031.65708731, -4421292.62142344 ] ] ] } },
{ "type": "Feature", "properties": { "fid": 70, "zone_type": "shops", "zone_name": "shops_lv3_1", "floor_level": 3 }, "geometry": { "type": "Polygon", "coordinates": [ [ [ 19456034.06629447, -4421238.81579692 ], [ 19455984.81139259, -4421240.9573144 ], [ 19455974.90687427, -4421261.30173039 ], [ 19455975.17456396, -4421263.71093755 ], [ 19455988.02366879, -4421263.71093755 ], [ 19455990.43287595, -4421273.88314555 ], [ 19456006.49425701, -4421273.88314555 ], [ 19456006.49425701, -4421279.50462891 ], [ 19456031.38939763, -4421278.70155986 ], [ 19456029.24788015, -4421267.9939725 ], [ 19456004.08504985, -4421268.79704155 ], [ 19456003.54967048, -4421260.49866134 ], [ 19456011.84805068, -4421260.23097166 ], [ 19456011.580361, -4421263.71093755 ], [ 19456030.85401826, -4421263.17555818 ], [ 19456034.06629447, -4421238.81579692 ] ] ] } },
{ "type": "Feature", "properties": { "fid": 71, "zone_type": "shops", "zone_name": "ArchieBrothers", "floor_level": 3 }, "geometry": { "type": "Polygon", "coordinates": [ [ [ 19455944.65793996, -4421296.90445838 ], [ 19455935.07564468, -4421333.79257316 ], [ 19455999.93585972, -4421347.02935174 ], [ 19456000.96887861, -4421351.41968198 ], [ 19456004.75427405, -4421351.24546427 ], [ 19456004.8881189, -4421346.69473964 ], [ 19456007.29732605, -4421346.42704995 ], [ 19456007.02963637, -4421336.52253164 ], [ 19456013.11957668, -4421336.45560922 ], [ 19456012.18266279, -4421327.01954785 ], [ 19456010.308835, -4421326.35032364 ], [ 19456009.70653321, -4421305.20283859 ], [ 19455986.21676343, -4421305.47052828 ], [ 19455986.44071727, -4421295.20088079 ], [ 19455944.65793996, -4421296.90445838 ] ] ] } },
{ "type": "Feature", "properties": { "fid": 72, "zone_type": "shops", "zone_name": "shops_lv3_2", "floor_level": 3 }, "geometry": { "type": "Polygon", "coordinates": [ [ [ 19456031.65708731, -4421292.62142344 ], [ 19455986.44071727, -4421295.20088079 ], [ 19455986.21676343, -4421305.47052828 ], [ 19456009.70653321, -4421305.20283859 ], [ 19456010.308835, -4421326.35032364 ], [ 19456012.18266279, -4421327.01954785 ], [ 19456013.11957668, -4421336.45560922 ], [ 19456007.02963637, -4421336.52253164 ], [ 19456007.29732605, -4421346.42704995 ], [ 19456014.32418027, -4421345.49013606 ], [ 19456014.05649058, -4421347.89934322 ], [ 19456017.80414616, -4421347.89934322 ], [ 19456017.80414616, -4421353.52082658 ], [ 19456027.44097479, -4421353.2531369 ], [ 19456027.44097479, -4421344.15168764 ], [ 19456033.33014784, -4421344.41937732 ], [ 19456033.06245815, -4421324.87803038 ], [ 19456031.65708731, -4421292.62142344 ] ] ] } },
{ "type": "Feature", "properties": { "fid": 73, "zone_type": "seats", "zone_name": "seats_lv3_1", "floor_level": 3 }, "geometry": { "type": "Polygon", "coordinates": [ [ [ 19456044.30542489, -4421226.36822661 ], [ 19456057.95759878, -4421230.38357187 ], [ 19456052.06842573, -4421237.34350366 ], [ 19456043.77004552, -4421234.13122745 ], [ 19456044.30542489, -4421226.36822661 ] ] ] } },
{ "type": "Feature", "properties": { "fid": 74, "zone_type": "shops", "zone_name": "shops_lv3_2", "floor_level": 3 }, "geometry": { "type": "Polygon", "coordinates": [ [ [ 19456043.77004552, -4421234.13122745 ], [ 19456042.96697647, -4421246.98033229 ], [ 19456044.84080426, -4421248.05109103 ], [ 19456052.06842573, -4421237.34350366 ], [ 19456043.77004552, -4421234.13122745 ] ] ] } },
{ "type": "Feature", "properties": { "fid": 75, "zone_type": "shops", "zone_name": "NoelLeeming", "floor_level": 3 }, "geometry": { "type": "Polygon", "coordinates": [ [ [ 19456008.7696193, -4421390.12739089 ], [ 19456042.16390742, -4421398.49269352 ], [ 19456042.16390742, -4421400.09883163 ], [ 19456077.23125604, -4421407.05876341 ], [ 19456078.30201478, -4421399.29576257 ], [ 19456079.6404632, -4421398.76038321 ], [ 19456077.76663541, -4421366.63762111 ], [ 19456052.33611542, -4421367.17300048 ], [ 19456035.47166531, -4421367.97606953 ], [ 19456017.00107711, -4421369.31451795 ], [ 19456015.12724932, -4421376.8098291 ], [ 19456011.91497311, -4421376.27444974 ], [ 19456008.7696193, -4421390.12739089 ] ] ] } },
{ "type": "Feature", "properties": { "fid": 76, "zone_type": "elevator", "zone_name": "elevator_lv3_1", "floor_level": 3 }, "geometry": { "type": "Polygon", "coordinates": [ [ [ 19456004.75427405, -4421351.24546427 ], [ 19456004.8881189, -4421346.69473964 ], [ 19456014.32418027, -4421345.49013606 ], [ 19456014.05649058, -4421347.89934322 ], [ 19456017.80414616, -4421347.89934322 ], [ 19456017.80414616, -4421353.52082658 ], [ 19456004.75427405, -4421351.24546427 ] ] ] } },
{ "type": "Feature", "properties": { "fid": 77, "zone_type": "elevator", "zone_name": "elevator_lv3_2", "floor_level": 3 }, "geometry": { "type": "Polygon", "coordinates": [ [ [ 19456003.54967048, -4421260.49866134 ], [ 19456011.84805068, -4421260.23097166 ], [ 19456011.580361, -4421263.71093755 ], [ 19456003.74939749, -4421263.59443012 ], [ 19456003.54967048, -4421260.49866134 ] ] ] } },
{ "type": "Feature", "properties": { "fid": 78, "zone_type": "shops", "zone_name": "shops_lv3_4", "floor_level": 3 }, "geometry": { "type": "Polygon", "coordinates": [ [ [ 19456068.26365164, -4421240.68962471 ], [ 19456072.14515206, -4421316.57965017 ], [ 19456069.46825521, -4421316.71349501 ], [ 19456069.86978974, -4421324.47649585 ], [ 19456065.5867548, -4421324.74418554 ], [ 19456065.98828932, -4421332.9087209 ], [ 19456072.81437626, -4421332.77487606 ], [ 19456074.2197471, -4421332.97564333 ], [ 19456074.2197471, -4421358.54000816 ], [ 19456076.89664395, -4421358.67385301 ], [ 19456077.76663541, -4421366.63762111 ], [ 19456051.52850413, -4421367.21145815 ], [ 19456048.65538227, -4421316.78041743 ], [ 19456045.97848543, -4421260.46520013 ], [ 19456068.26365164, -4421240.68962471 ] ] ] } },
{ "type": "Feature", "properties": { "fid": 79, "zone_type": "shops", "zone_name": "shops_lv3_6", "floor_level": 3 }, "geometry": { "type": "Polygon", "coordinates": [ [ [ 19456035.47166531, -4421367.97606953 ], [ 19456035.67243259, -4421359.51038327 ], [ 19456015.86339597, -4421362.45496979 ], [ 19456001.05357001, -4421360.9265294 ], [ 19455996.9912732, -4421379.9551829 ], [ 19456005.02196373, -4421382.09670037 ], [ 19456005.02196373, -4421380.75825195 ], [ 19456010.64344709, -4421382.09670037 ], [ 19456011.91497311, -4421376.27444974 ], [ 19456015.12724932, -4421376.8098291 ], [ 19456017.00107711, -4421369.31451795 ], [ 19456035.47166531, -4421367.97606953 ] ] ] } },
{ "type": "Feature", "properties": { "fid": 80, "zone_type": "shops", "zone_name": "shops_lv3_6", "floor_level": 3 }, "geometry": { "type": "Polygon", "coordinates": [ [ [ 19455911.23753635, -4421105.11305651 ], [ 19455932.87959388, -4421109.95667521 ], [ 19455941.71335346, -4421117.18429668 ], [ 19455947.20099198, -4421096.17065648 ], [ 19455951.75171661, -4421096.83988069 ], [ 19455952.82247534, -4421093.49375964 ], [ 19455957.90857935, -4421094.29682869 ], [ 19455958.70478808, -4421090.4571996 ], [ 19455917.6223079, -4421079.88626902 ], [ 19455911.23753635, -4421105.11305651 ] ] ] } },
{ "type": "Feature", "properties": { "fid": 81, "zone_type": "elevator", "zone_name": "elevator_lv3_3", "floor_level": 3 }, "geometry": { "type": "Polygon", "coordinates": [ [ [ 19455964.36480599, -4421091.91357847 ], [ 19455966.47464922, -4421092.45646211 ], [ 19455968.34847703, -4421093.22606995 ], [ 19455965.13620082, -4421105.94132995 ], [ 19455961.2547004, -4421104.87057121 ], [ 19455964.36480599, -4421091.91357847 ] ] ] } },
{ "type": "Feature", "properties": { "fid": 82, "zone_type": "shops", "zone_name": "shops_lv3_7", "floor_level": 3 }, "geometry": { "type": "Polygon", "coordinates": [ [ [ 19455965.13620082, -4421105.94132995 ], [ 19455968.34847703, -4421093.22606995 ], [ 19455966.47464922, -4421092.45646211 ], [ 19455967.81309764, -4421089.51187558 ], [ 19456025.09869005, -4421104.23480821 ], [ 19456050.79689972, -4421110.92705032 ], [ 19456045.71079573, -4421129.66532821 ], [ 19456028.31096628, -4421123.87653879 ], [ 19456027.77558691, -4421126.01805626 ], [ 19456040.08931238, -4421128.96264279 ], [ 19456028.0432766, -4421143.15019605 ], [ 19456020.28027576, -4421138.06409205 ], [ 19456013.85572334, -4421135.11950552 ], [ 19456004.75427407, -4421131.37184994 ], [ 19455998.32972165, -4421129.23033247 ], [ 19455993.24361766, -4421123.07346973 ], [ 19455988.42520334, -4421120.93195226 ], [ 19455973.70227071, -4421116.916607 ], [ 19455974.23765008, -4421115.84584826 ], [ 19455967.54540797, -4421115.57815858 ], [ 19455967.01002861, -4421116.64891732 ], [ 19455958.97933809, -4421114.77508953 ], [ 19455961.2547004, -4421104.87057121 ], [ 19455965.13620082, -4421105.94132995 ] ] ] } },
{ "type": "Feature", "properties": { "fid": 83, "zone_type": "shops", "zone_name": "shops_lv3_7", "floor_level": 3 }, "geometry": { "type": "Polygon", "coordinates": [ [ [ 19455904.81841971, -4421130.47554442 ], [ 19455937.02878398, -4421138.33178173 ], [ 19455931.6749903, -4421159.2115771 ], [ 19455934.35188714, -4421160.28233583 ], [ 19455941.04412925, -4421134.31643647 ], [ 19455943.18564672, -4421134.04874679 ], [ 19455970.22230482, -4421142.07943731 ], [ 19455975.57609851, -4421143.68557541 ], [ 19455981.46527155, -4421148.77167941 ], [ 19455984.40985808, -4421152.25164531 ], [ 19455991.63747955, -4421174.46988909 ], [ 19455993.77899702, -4421173.93450972 ], [ 19455997.5266526, -4421187.8543733 ], [ 19455875.19246692, -4421157.23736568 ], [ 19455876.53091534, -4421149.74205452 ], [ 19455885.90005429, -4421143.04981242 ], [ 19455900.8906766, -4421145.99439894 ], [ 19455904.81841971, -4421130.47554442 ] ] ] } },
{ "type": "Feature", "properties": { "fid": 84, "zone_type": "shops", "zone_name": "shops_lv3_8", "floor_level": 3 }, "geometry": { "type": "Polygon", "coordinates": [ [ [ 19456035.94012228, -4421196.55428804 ], [ 19456033.26322544, -4421181.1621312 ], [ 19456022.55563807, -4421182.90211414 ], [ 19456011.1788265, -4421187.8543733 ], [ 19456008.10039512, -4421190.66511498 ], [ 19456035.94012228, -4421196.55428804 ] ] ] } },
{ "type": "Feature", "properties": { "fid": 85, "zone_type": "shops", "zone_name": "shops_lv3_8", "floor_level": 3 }, "geometry": { "type": "Polygon", "coordinates": [ [ [ 19456032.99553575, -4421174.33604425 ], [ 19456023.76024165, -4421163.62845688 ], [ 19456013.45418881, -4421155.86545604 ], [ 19456001.0066185, -4421149.30705878 ], [ 19455996.99127323, -4421148.50398973 ], [ 19455994.44822123, -4421149.70859331 ], [ 19455993.3774625, -4421151.31473141 ], [ 19455993.64515218, -4421154.1254731 ], [ 19455998.59741133, -4421171.79299225 ], [ 19456003.41582565, -4421185.44516614 ], [ 19456032.99553575, -4421174.33604425 ] ] ] } },
{ "type": "Feature", "properties": { "fid": 86, "zone_type": "shops", "zone_name": "shops_lv3_9", "floor_level": 3 }, "geometry": { "type": "Polygon", "coordinates": [ [ [ 19456085.89007352, -4421144.08977259 ], [ 19456080.10892017, -4421165.70305194 ], [ 19456073.41667807, -4421164.36460352 ], [ 19456073.41667807, -4421159.27849952 ], [ 19456048.78922712, -4421157.13698204 ], [ 19456050.39536523, -4421147.7678431 ], [ 19456047.18308902, -4421147.23246373 ], [ 19456045.04157155, -4421156.86929236 ], [ 19456040.49084691, -4421156.33391299 ], [ 19456039.1523985, -4421156.06622331 ], [ 19456031.12170797, -4421145.89401531 ], [ 19456042.3646747, -4421133.04491047 ], [ 19456043.06990384, -4421128.78672379 ], [ 19456046.78155446, -4421129.93301789 ], [ 19456045.71079573, -4421133.1452941 ], [ 19456052.13534814, -4421135.28681158 ], [ 19456051.59996878, -4421136.62526 ], [ 19456085.89007352, -4421144.08977259 ] ] ] } },
{ "type": "Feature", "properties": { "fid": 87, "zone_type": "food_court", "zone_name": "food_court", "floor_level": 3 }, "geometry": { "type": "Polygon", "coordinates": [ [ [ 19456042.90005407, -4421198.89657277 ], [ 19456064.04753912, -4421203.98267677 ], [ 19456066.18905659, -4421204.25036645 ], [ 19456077.69971301, -4421196.21967593 ], [ 19456077.16433365, -4421194.61353782 ], [ 19456078.77047175, -4421191.93664098 ], [ 19456090.95035235, -4421145.19132989 ], [ 19456085.89007352, -4421144.08977259 ], [ 19456080.10892017, -4421165.70305194 ], [ 19456073.41667807, -4421164.36460352 ], [ 19456073.41667807, -4421159.27849952 ], [ 19456048.78922712, -4421157.13698204 ], [ 19456050.39536523, -4421147.7678431 ], [ 19456047.18308902, -4421147.23246373 ], [ 19456045.04157155, -4421156.86929236 ], [ 19456038.61701912, -4421174.8045012 ], [ 19456042.90005407, -4421198.89657277 ] ] ] } },
{ "type": "Feature", "properties": { "fid": 88, "zone_type": "escalator", "zone_name": "escalator_lv3_1", "floor_level": 3 }, "geometry": { "type": "Polygon", "coordinates": [ [ [ 19456027.44097479, -4421344.15168764 ], [ 19456027.44097479, -4421353.2531369 ], [ 19456034.46782903, -4421353.18621448 ], [ 19456033.33014784, -4421344.41937732 ], [ 19456027.44097479, -4421344.15168764 ] ] ] } },
{ "type": "Feature", "properties": { "fid": 89, "zone_type": "escalator", "zone_name": "escalator_lv3_2", "floor_level": 3 }, "geometry": { "type": "Polygon", "coordinates": [ [ [ 19456035.27089808, -4421268.06089492 ], [ 19456042.23082987, -4421267.52551555 ], [ 19456042.49851955, -4421294.29448396 ], [ 19456036.34165682, -4421295.09755301 ], [ 19456035.27089808, -4421268.06089492 ] ] ] } },
{ "type": "Feature", "properties": { "fid": 90, "zone_type": "escalator", "zone_name": "escalator_lv3_3", "floor_level": 3 }, "geometry": { "type": "Polygon", "coordinates": [ [ [ 19456035.80627745, -4421167.27572883 ], [ 19456020.54796546, -4421154.82815852 ], [ 19456023.62639682, -4421151.21434778 ], [ 19456038.34932945, -4421164.59883199 ], [ 19456035.80627745, -4421167.27572883 ] ] ] } },
{ "type": "Feature", "properties": { "fid": 91, "zone_type": "escalator", "zone_name": "escalator_lv3_4", "floor_level": 3 }, "geometry": { "type": "Polygon", "coordinates": [ [ [ 19455957.90857935, -4421094.29682869 ], [ 19455950.48019063, -4421120.63080137 ], [ 19455941.51258621, -4421118.75697358 ], [ 19455941.71335346, -4421117.18429668 ], [ 19455947.20099198, -4421096.17065648 ], [ 19455951.75171661, -4421096.83988069 ], [ 19455952.82247534, -4421093.49375964 ], [ 19455957.90857935, -4421094.29682869 ] ] ] } },
{ "type": "Feature", "properties": { "fid": 92, "zone_type": "seats", "zone_name": "seats_lv3_2", "floor_level": 3 }, "geometry": { "type": "Polygon", "coordinates": [ [ [ 19455929.46655042, -4421129.59840579 ], [ 19455923.97891189, -4421129.19687126 ], [ 19455921.03432537, -4421127.05535379 ], [ 19455919.69587694, -4421122.77231884 ], [ 19455919.69587694, -4421119.29235295 ], [ 19455922.10508411, -4421116.48161126 ], [ 19455924.91582579, -4421114.74162832 ], [ 19455928.128102, -4421114.60778347 ], [ 19455931.47422305, -4421116.34776642 ], [ 19455933.48189568, -4421119.42619779 ], [ 19455933.88343021, -4421123.57538789 ], [ 19455931.87575758, -4421127.18919863 ], [ 19455929.46655042, -4421129.59840579 ] ] ] } },
{ "type": "Feature", "properties": { "fid": 93, "zone_type": "seats", "zone_name": "seats_lv3_3", "floor_level": 3 }, "geometry": { "type": "Polygon", "coordinates": [ [ [ 19455955.56629463, -4421132.00761294 ], [ 19455959.04626052, -4421128.79533673 ], [ 19455974.5722622, -4421129.06302642 ], [ 19455987.2875222, -4421131.73992326 ], [ 19455981.53219399, -4421137.89678599 ], [ 19455955.56629463, -4421132.00761294 ] ] ] } },
{ "type": "Feature", "properties": { "fid": 94, "zone_type": "seats", "zone_name": "seats_lv3_5", "floor_level": 3 }, "geometry": { "type": "Polygon", "coordinates": [ [ [ 19455997.19204051, -4421135.35373399 ], [ 19456002.14429967, -4421135.48757884 ], [ 19456011.64728346, -4421139.63676894 ], [ 19456018.87490493, -4421144.32133842 ], [ 19456014.72571483, -4421148.7382182 ], [ 19456004.41966198, -4421142.0459761 ], [ 19455996.79050599, -4421139.90445863 ], [ 19455997.19204051, -4421135.35373399 ] ] ] } },
{ "type": "Feature", "properties": { "fid": 95, "zone_type": "corridor", "zone_name": "corridor", "floor_level": 3 }, "geometry": { "type": "Polygon", "coordinates": [ [ [ 19456050.61762581, -4421239.49283687 ], [ 19456059.75869339, -4421248.23681739 ], [ 19456045.97848543, -4421260.46520013 ], [ 19456051.52850413, -4421367.21145815 ], [ 19456035.47166531, -4421367.97606953 ], [ 19456035.67243259, -4421359.51038327 ], [ 19456015.86339597, -4421362.45496979 ], [ 19456001.05357001, -4421360.9265294 ], [ 19456002.0773772, -4421356.13080101 ], [ 19456000.96887861, -4421351.41968198 ], [ 19456004.75427405, -4421351.24546427 ], [ 19456017.80414616, -4421353.52082658 ], [ 19456034.46782903, -4421353.18621448 ], [ 19456033.33014784, -4421344.41937732 ], [ 19456031.65708731, -4421292.62142344 ], [ 19456031.38939763, -4421278.70155986 ], [ 19456029.24788015, -4421267.9939725 ], [ 19456004.08504985, -4421268.79704155 ], [ 19456003.74939749, -4421263.59443012 ], [ 19456030.85401826, -4421263.17555818 ], [ 19456034.06629447, -4421238.81579692 ], [ 19456036.74319131, -4421225.16362303 ], [ 19456035.94012228, -4421196.55428804 ], [ 19456033.26322544, -4421181.1621312 ], [ 19456022.55563807, -4421182.90211414 ], [ 19456011.1788265, -4421187.8543733 ], [ 19456008.10039512, -4421190.66511498 ], [ 19455997.5266526, -4421187.8543733 ], [ 19455993.77899702, -4421173.93450972 ], [ 19455991.63747955, -4421174.46988909 ], [ 19455984.40985808, -4421152.25164531 ], [ 19455981.46527155, -4421148.77167941 ], [ 19455975.57609851, -4421143.68557541 ], [ 19455943.18564672, -4421134.04874679 ], [ 19455941.04412925, -4421134.31643647 ], [ 19455934.35188714, -4421160.28233583 ], [ 19455931.6749903, -4421159.2115771 ], [ 19455937.02878398, -4421138.33178173 ], [ 19455904.81841971, -4421130.47554442 ], [ 19455911.23753635, -4421105.11305651 ], [ 19455932.87959388, -4421109.95667521 ], [ 19455941.71335346, -4421117.18429668 ], [ 19455941.51258621, -4421118.75697358 ], [ 19455950.48019063, -4421120.63080137 ], [ 19455957.90857935, -4421094.29682869 ], [ 19455958.70478808, -4421090.4571996 ], [ 19455964.36480599, -4421091.91357847 ], [ 19455958.97933809, -4421114.77508953 ], [ 19455967.01002861, -4421116.64891732 ], [ 19455967.54540797, -4421115.57815858 ], [ 19455974.23765008, -4421115.84584826 ], [ 19455973.70227071, -4421116.916607 ], [ 19455988.42520334, -4421120.93195226 ], [ 19455993.24361766, -4421123.07346973 ], [ 19455998.32972165, -4421129.23033247 ], [ 19456004.77824115, -4421131.39723064 ], [ 19456013.85572334, -4421135.11950552 ], [ 19456020.28027576, -4421138.06409205 ], [ 19456028.0432766, -4421143.15019605 ], [ 19456040.08931238, -4421128.96264279 ], [ 19456027.77558691, -4421126.01805626 ], [ 19456028.31096628, -4421123.87653879 ], [ 19456043.06990384, -4421128.78672379 ], [ 19456042.3646747, -4421133.04491047 ], [ 19456031.12170797, -4421145.89401531 ], [ 19456039.1523985, -4421156.06622331 ], [ 19456045.04157155, -4421156.86929236 ], [ 19456038.61701912, -4421174.8045012 ], [ 19456042.90005407, -4421198.89657277 ], [ 19456044.30542489, -4421226.36822661 ], [ 19456042.96697647, -4421246.98033229 ], [ 19456044.84080426, -4421248.05109103 ], [ 19456050.61762581, -4421239.49283687 ] ], [ [ 19455994.44822123, -4421149.70859331 ], [ 19455993.64515218, -4421154.1254731 ], [ 19455995.70940601, -4421161.4898381 ], [ 19455998.59741133, -4421171.79299225 ], [ 19456003.41582565, -4421185.44516614 ], [ 19456032.99553575, -4421174.33604425 ], [ 19456023.76024165, -4421163.62845688 ], [ 19456015.78477852, -4421157.62096518 ], [ 19456007.83137913, -4421152.90290041 ], [ 19455999.21773073, -4421148.94928123 ], [ 19455996.99127323, -4421148.50398973 ], [ 19455994.44822123, -4421149.70859331 ] ] ] } },
{ "type": "Feature", "properties": { "fid": 96, "zone_type": "entry_exit", "zone_name": "entry_exit_lv1_1", "floor_level": 1 }, "geometry": { "type": "Polygon", "coordinates": [ [ [ 19456075.08250165, -4421073.42093895 ], [ 19456083.25338048, -4421075.36152267 ], [ 19456078.93965384, -4421074.33701259 ], [ 19456079.30600708, -4421074.42402149 ], [ 19456075.08250165, -4421073.42093895 ] ] ] } },
{ "type": "Feature", "properties": { "fid": 97, "zone_type": "entry_exit", "zone_name": "entry_exit_lv1_2", "floor_level": 1 }, "geometry": { "type": "Polygon", "coordinates": [ [ [ 19455959.05602215, -4421091.2947364 ], [ 19455965.59272522, -4421092.62250421 ], [ 19455965.55812696, -4421092.76089729 ], [ 19455959.05602215, -4421091.2947364 ] ] ] } },
{ "type": "Feature", "properties": { "fid": 98, "zone_type": "entry_exit", "zone_name": "entry_exit_lv1_3", "floor_level": 1 }, "geometry": { "type": "Polygon", "coordinates": [ [ [ 19455918.20162797, -4421166.46682171 ], [ 19455922.28706738, -4421167.48818156 ], [ 19455919.98859224, -4421166.91356278 ], [ 19455919.95272496, -4421166.90459596 ], [ 19455918.20162797, -4421166.46682171 ] ] ] } },
{ "type": "Feature", "properties": { "fid": 99, "zone_type": "entry_exit", "zone_name": "entry_exit_lv1_4", "floor_level": 1 }, "geometry": { "type": "Polygon", "coordinates": [ [ [ 19456063.4389993, -4421202.21441662 ], [ 19456074.6739577, -4421196.69907341 ], [ 19456064.15795454, -4421201.86147496 ], [ 19456063.4389993, -4421202.21441662 ] ] ] } },
{ "type": "Feature", "properties": { "fid": 100, "zone_type": "entry_exit", "zone_name": "entry_exit_lv1_5", "floor_level": 1 }, "geometry": { "type": "Polygon", "coordinates": [ [ [ 19456050.68544195, -4421241.83028249 ], [ 19456059.86769477, -4421250.30846109 ], [ 19456059.58175277, -4421250.55355423 ], [ 19456050.55564908, -4421241.99318578 ], [ 19456050.68544195, -4421241.83028249 ] ] ] } },
{ "type": "Feature", "properties": { "fid": 102, "zone_type": "entry_exit", "zone_name": "entry_exit_lv1_7", "floor_level": 1 }, "geometry": { "type": "Polygon", "coordinates": [ [ [ 19456073.24678537, -4421325.1726266 ], [ 19456072.9757882, -4421335.74151646 ], [ 19456072.9757882, -4421335.74151646 ], [ 19456073.11797491, -4421330.19623451 ], [ 19456073.24678537, -4421325.1726266 ] ] ] } },
{ "type": "Feature", "properties": { "fid": 103, "zone_type": "entry_exit", "zone_name": "entry_exit_lv1_8", "floor_level": 1 }, "geometry": { "type": "Polygon", "coordinates": [ [ [ 19456099.59513816, -4421080.26404997 ], [ 19456105.11048137, -4421085.77939319 ], [ 19456103.27203364, -4421082.51104165 ], [ 19456099.59513816, -4421080.26404997 ] ] ] } },
{ "type": "Feature", "properties": { "fid": 104, "zone_type": "entry_exit", "zone_name": "entry_exit_lv2_1", "floor_level": 2 }, "geometry": { "type": "Polygon", "coordinates": [ [ [ 19455960.13175036, -4421090.80330666 ], [ 19455965.63867071, -4421092.20418991 ], [ 19455965.63590205, -4421092.33363552 ], [ 19455960.11433459, -4421090.944775 ], [ 19455960.13175036, -4421090.80330666 ] ] ] } },
{ "type": "Feature", "properties": { "fid": 105, "zone_type": "entry_exit", "zone_name": "entry_exit_lv2_2", "floor_level": 2 }, "geometry": { "type": "Polygon", "coordinates": [ [ [ 19456008.38570655, -4421357.23337494 ], [ 19456007.13234461, -4421363.60180857 ], [ 19456007.09846997, -4421363.60180857 ], [ 19456008.4195812, -4421357.19950029 ], [ 19456008.38570655, -4421357.23337494 ] ] ] } },
{ "type": "Feature", "properties": { "fid": 106, "zone_type": "entry_exit", "zone_name": "entry_exit_lv3_1", "floor_level": 3 }, "geometry": { "type": "Polygon", "coordinates": [ [ [ 19455958.77857091, -4421090.39859766 ], [ 19455964.4669767, -4421091.87089093 ], [ 19455964.40005428, -4421092.07165819 ], [ 19455958.71164849, -4421090.59936493 ], [ 19455958.77857091, -4421090.39859766 ] ] ] } },
{ "type": "Feature", "properties": { "fid": 107, "zone_type": "entry_exit", "zone_name": "entry_exit_lv3_1", "floor_level": 3 }, "geometry": { "type": "Polygon", "coordinates": [ [ [ 19456001.0400798, -4421351.49642335 ], [ 19456002.14429975, -4421356.21445403 ], [ 19456001.07354102, -4421360.8990235 ], [ 19456001.0400798, -4421351.49642335 ] ] ] } },
{ "type": "Feature", "properties": { "fid": 108, "zone_type": "entry_exit", "zone_name": "DavidJones_lv1_entry-exit", "floor_level": 1 }, "geometry": { "type": "Polygon", "coordinates": [ [ [ 19455909.72695879, -4421111.63991588 ], [ 19455909.93958344, -4421111.74622821 ], [ 19455907.45896247, -4421122.30658605 ], [ 19455907.28177526, -4421122.20027372 ], [ 19455909.72695879, -4421111.63991588 ] ] ] } },
{ "type": "Feature", "properties": { "fid": 109, "zone_type": "entry_exit", "zone_name": "shops_lv1_entry-exit_1", "floor_level": 1 }, "geometry": { "type": "Polygon", "coordinates": [ [ [ 19455924.64612204, -4421107.63548488 ], [ 19455924.50437227, -4421108.13160908 ], [ 19455931.30836122, -4421109.69085655 ], [ 19455931.30836122, -4421109.40735701 ], [ 19455924.64612204, -4421107.63548488 ] ] ] } },
{ "type": "Feature", "properties": { "fid": 110, "zone_type": "entry_exit", "zone_name": "shops_lv1_entry-exit_2", "floor_level": 1 }, "geometry": { "type": "Polygon", "coordinates": [ [ [ 19455912.73914139, -4421132.51256946 ], [ 19455912.73914139, -4421132.796069 ], [ 19455920.32275407, -4421134.49706624 ], [ 19455920.39362895, -4421134.28444158 ], [ 19455912.73914139, -4421132.51256946 ] ] ] } },
{ "type": "Feature", "properties": { "fid": 111, "zone_type": "entry_exit", "zone_name": "shops_lv1_entry-exit_3", "floor_level": 1 }, "geometry": { "type": "Polygon", "coordinates": [ [ [ 19456034.14781912, -4421132.796069 ], [ 19456034.36044377, -4421132.97325621 ], [ 19456041.2353076, -4421128.72076312 ], [ 19456041.12899527, -4421128.50813847 ], [ 19456034.14781912, -4421132.796069 ] ] ] } },
{ "type": "Feature", "properties": { "fid": 112, "zone_type": "entry_exit", "zone_name": "shops_lv1_entry-exit_4", "floor_level": 1 }, "geometry": { "type": "Polygon", "coordinates": [ [ [ 19456076.92081211, -4421125.07070656 ], [ 19456077.27518653, -4421125.14158144 ], [ 19456075.39700209, -4421132.15819504 ], [ 19456075.18437744, -4421132.15819504 ], [ 19456076.92081211, -4421125.07070656 ] ] ] } },
{ "type": "Feature", "properties": { "fid": 113, "zone_type": "entry_exit", "zone_name": "shops_lv1_entry-exit_5", "floor_level": 1 }, "geometry": { "type": "Polygon", "coordinates": [ [ [ 19456020.25634168, -4421120.49927648 ], [ 19456020.36265401, -4421120.71190114 ], [ 19456025.89089503, -4421117.5934062 ], [ 19456025.7845827, -4421117.52253132 ], [ 19456020.25634168, -4421120.49927648 ] ] ] } },
{ "type": "Feature", "properties": { "fid": 114, "zone_type": "entry_exit", "zone_name": "shops_lv1_entry-exit_6", "floor_level": 1 }, "geometry": { "type": "Polygon", "coordinates": [ [ [ 19455993.28844799, -4421147.30770167 ], [ 19455993.18213566, -4421147.59120121 ], [ 19455998.92300134, -4421150.03638474 ], [ 19455999.02931366, -4421149.85919753 ], [ 19455993.28844799, -4421147.30770167 ] ] ] } },
{ "type": "Feature", "properties": { "fid": 115, "zone_type": "entry_exit", "zone_name": "HandM_lv1_entry-exit", "floor_level": 1 }, "geometry": { "type": "Polygon", "coordinates": [ [ [ 19456043.36155412, -4421250.53697144 ], [ 19456043.60961622, -4421250.71415865 ], [ 19456041.12899525, -4421253.65546637 ], [ 19456040.95180804, -4421253.58459149 ], [ 19456043.36155412, -4421250.53697144 ] ] ] } },
{ "type": "Feature", "properties": { "fid": 116, "zone_type": "entry_exit", "zone_name": "shops_lv1_entry-exit_7", "floor_level": 1 }, "geometry": { "type": "Polygon", "coordinates": [ [ [ 19456046.69267372, -4421280.37529795 ], [ 19456046.86986093, -4421280.37529795 ], [ 19456046.94073582, -4421284.55691616 ], [ 19456046.83442349, -4421284.55691616 ], [ 19456046.69267372, -4421280.37529795 ] ] ] } },
{ "type": "Feature", "properties": { "fid": 117, "zone_type": "entry_exit", "zone_name": "shops_lv1_entry-exit_8", "floor_level": 1 }, "geometry": { "type": "Polygon", "coordinates": [ [ [ 19456031.02932418, -4421289.97884485 ], [ 19456031.24194883, -4421289.97884485 ], [ 19456031.34826116, -4421294.33765027 ], [ 19456031.17107395, -4421294.33765027 ], [ 19456031.02932418, -4421289.97884485 ] ] ] } },
{ "type": "Feature", "properties": { "fid": 118, "zone_type": "entry_exit", "zone_name": "shops_lv1_entry-exit_9", "floor_level": 1 }, "geometry": { "type": "Polygon", "coordinates": [ [ [ 19456044.07030298, -4421374.70976967 ], [ 19456049.03154492, -4421374.5680199 ], [ 19456048.96067004, -4421374.67433223 ], [ 19456044.10574042, -4421374.816082 ], [ 19456044.07030298, -4421374.70976967 ] ] ] } },
{ "type": "Feature", "properties": { "fid": 119, "zone_type": "entry_exit", "zone_name": "shops_lv1_entry-exit_10", "floor_level": 1 }, "geometry": { "type": "Polygon", "coordinates": [ [ [ 19456035.8842538, -4421340.72526239 ], [ 19456036.06144101, -4421340.72526239 ], [ 19456036.27406567, -4421344.44619385 ], [ 19456036.1323159, -4421344.48163129 ], [ 19456035.8842538, -4421340.72526239 ] ] ] } },
{ "type": "Feature", "properties": { "fid": 120, "zone_type": "entry_exit", "zone_name": "shops_lv1_entry-exit_11", "floor_level": 1 }, "geometry": { "type": "Polygon", "coordinates": [ [ [ 19456035.01603648, -4421323.12171287 ], [ 19456035.22866113, -4421323.08627543 ], [ 19456035.54759812, -4421329.60676483 ], [ 19456035.33497346, -4421329.60676483 ], [ 19456035.01603648, -4421323.12171287 ] ] ] } },
{ "type": "Feature", "properties": { "fid": 121, "zone_type": "entry_exit", "zone_name": "shops_lv2_entry-exit_1", "floor_level": 2 }, "geometry": { "type": "Polygon", "coordinates": [ [ [ 19456043.32611679, -4421384.13612937 ], [ 19456043.37927295, -4421384.24244169 ], [ 19456049.70485642, -4421383.9943796 ], [ 19456049.70485642, -4421383.88806727 ], [ 19456043.32611679, -4421384.13612937 ] ] ] } },
{ "type": "Feature", "properties": { "fid": 122, "zone_type": "entry_exit", "zone_name": "shops_lv2_entry-exit_2", "floor_level": 2 }, "geometry": { "type": "Polygon", "coordinates": [ [ [ 19456032.0570101, -4421339.99879483 ], [ 19456032.21647859, -4421339.99879483 ], [ 19456032.42910325, -4421345.10178654 ], [ 19456032.28735348, -4421345.08406782 ], [ 19456032.0570101, -4421339.99879483 ] ] ] } },
{ "type": "Feature", "properties": { "fid": 123, "zone_type": "entry_exit", "zone_name": "shops_lv2_entry-exit_3", "floor_level": 2 }, "geometry": { "type": "Polygon", "coordinates": [ [ [ 19456030.16378708, -4421283.26490901 ], [ 19456030.25238068, -4421283.28262773 ], [ 19456030.41184917, -4421286.86180941 ], [ 19456030.34097429, -4421286.87952813 ], [ 19456030.16378708, -4421283.26490901 ] ] ] } },
{ "type": "Feature", "properties": { "fid": 124, "zone_type": "entry_exit", "zone_name": "shops_lv2_entry-exit_4", "floor_level": 2 }, "geometry": { "type": "Polygon", "coordinates": [ [ [ 19456030.55091882, -4421260.4417366 ], [ 19456030.63951243, -4421260.4417366 ], [ 19456030.39145033, -4421263.80829363 ], [ 19456030.32057545, -4421263.79057491 ], [ 19456030.55091882, -4421260.4417366 ] ] ] } },
{ "type": "Feature", "properties": { "fid": 125, "zone_type": "entry_exit", "zone_name": "HandM_lv2_entry-exit", "floor_level": 2 }, "geometry": { "type": "Polygon", "coordinates": [ [ [ 19456033.47450783, -4421240.54361269 ], [ 19456033.68713248, -4421240.54361269 ], [ 19456032.1987599, -4421249.47384818 ], [ 19456031.91526036, -4421249.65103539 ], [ 19456033.47450783, -4421240.54361269 ] ] ] } },
{ "type": "Feature", "properties": { "fid": 126, "zone_type": "entry_exit", "zone_name": "farmers_lv2_entry-exit", "floor_level": 2 }, "geometry": { "type": "Polygon", "coordinates": [ [ [ 19456031.66719827, -4421312.78283906 ], [ 19456031.84438549, -4421312.8182765 ], [ 19456032.05701014, -4421322.4218234 ], [ 19456031.84438549, -4421322.31551107 ], [ 19456031.66719827, -4421312.78283906 ] ] ] } },
{ "type": "Feature", "properties": { "fid": 127, "zone_type": "entry_exit", "zone_name": "shops_lv2_entry-exit_6", "floor_level": 2 }, "geometry": { "type": "Polygon", "coordinates": [ [ [ 19456043.64505381, -4421127.7639522 ], [ 19456043.71592869, -4421127.94113941 ], [ 19456048.49998342, -4421125.14158146 ], [ 19456048.60629575, -4421124.89351936 ], [ 19456043.64505381, -4421127.7639522 ] ] ] } },
{ "type": "Feature", "properties": { "fid": 128, "zone_type": "entry_exit", "zone_name": "shops_lv2_entry-exit_7", "floor_level": 2 }, "geometry": { "type": "Polygon", "coordinates": [ [ [ 19456080.28736926, -4421133.80603613 ], [ 19456080.37596286, -4421133.78831741 ], [ 19456080.19877565, -4421136.57015664 ], [ 19456080.12790077, -4421136.55243792 ], [ 19456080.28736926, -4421133.80603613 ] ] ] } },
{ "type": "Feature", "properties": { "fid": 129, "zone_type": "entry_exit", "zone_name": "shops_lv2_entry-exit_8", "floor_level": 2 }, "geometry": { "type": "Polygon", "coordinates": [ [ [ 19455991.17992031, -4421147.25454553 ], [ 19455991.10904542, -4421147.43173274 ], [ 19455996.03484992, -4421148.95554276 ], [ 19455996.03484992, -4421148.84923044 ], [ 19455991.17992031, -4421147.25454553 ] ] ] } },
{ "type": "Feature", "properties": { "fid": 130, "zone_type": "entry_exit", "zone_name": "shops_lv2_entry-exit_9", "floor_level": 2 }, "geometry": { "type": "Polygon", "coordinates": [ [ [ 19456007.14448811, -4421130.98875946 ], [ 19456007.19764427, -4421131.05963434 ], [ 19456009.07582872, -4421130.01422979 ], [ 19456009.05811, -4421129.89019874 ], [ 19456007.14448811, -4421130.98875946 ] ] ] } },
{ "type": "Feature", "properties": { "fid": 131, "zone_type": "entry_exit", "zone_name": "shops_lv2_entry-exit_10", "floor_level": 2 }, "geometry": { "type": "Polygon", "coordinates": [ [ [ 19455928.43792851, -4421110.09838715 ], [ 19455928.43792851, -4421110.24013692 ], [ 19455932.8676088, -4421111.30326019 ], [ 19455932.8676088, -4421111.16151042 ], [ 19455928.43792851, -4421110.09838715 ] ] ] } },
{ "type": "Feature", "properties": { "fid": 132, "zone_type": "entry_exit", "zone_name": "DavidJones_lv2_entry-exit", "floor_level": 2 }, "geometry": { "type": "Polygon", "coordinates": [ [ [ 19455909.01821006, -4421115.36084735 ], [ 19455909.08908494, -4421115.36084735 ], [ 19455907.77789957, -4421120.64102627 ], [ 19455907.63614981, -4421120.60558883 ], [ 19455909.01821006, -4421115.36084735 ] ] ] } },
{ "type": "Feature", "properties": { "fid": 133, "zone_type": "entry_exit", "zone_name": "food_court_lv3_entry-exit", "floor_level": 3 }, "geometry": { "type": "Polygon", "coordinates": [ [ [ 19456044.40382441, -4421158.89360488 ], [ 19456044.57884907, -4421158.92860981 ], [ 19456039.04806978, -4421174.43579477 ], [ 19456042.02348902, -4421192.35832006 ], [ 19456041.84846436, -4421192.49833979 ], [ 19456038.83804018, -4421174.6283219 ], [ 19456044.40382441, -4421158.89360488 ] ] ] } },
{ "type": "Feature", "properties": { "fid": 134, "zone_type": "entry_exit", "zone_name": "shops_lv3_entry-exit_1", "floor_level": 3 }, "geometry": { "type": "Polygon", "coordinates": [ [ [ 19456033.37727077, -4421183.02950563 ], [ 19456033.5172905, -4421183.02950563 ], [ 19456034.53243352, -4421189.15536876 ], [ 19456034.32240393, -4421189.15536876 ], [ 19456033.37727077, -4421183.02950563 ] ] ] } },
{ "type": "Feature", "properties": { "fid": 135, "zone_type": "entry_exit", "zone_name": "shops_lv3_entry-exit_2", "floor_level": 3 }, "geometry": { "type": "Polygon", "coordinates": [ [ [ 19456010.09899083, -4421154.36046616 ], [ 19456010.04648344, -4421154.48298342 ], [ 19456017.239997, -4421158.85859994 ], [ 19456017.29250441, -4421158.78859008 ], [ 19456010.09899083, -4421154.36046616 ] ] ] } },
{ "type": "Feature", "properties": { "fid": 136, "zone_type": "entry_exit", "zone_name": "shops_lv3_entry-exit_3", "floor_level": 3 }, "geometry": { "type": "Polygon", "coordinates": [ [ [ 19456034.81247298, -4421150.45741622 ], [ 19456034.88248285, -4421150.38740635 ], [ 19456039.08307471, -4421155.63814618 ], [ 19456038.94305498, -4421155.70815605 ], [ 19456034.81247298, -4421150.45741622 ] ] ] } },
{ "type": "Feature", "properties": { "fid": 137, "zone_type": "entry_exit", "zone_name": "shops_lv3_entry-exit_4", "floor_level": 3 }, "geometry": { "type": "Polygon", "coordinates": [ [ [ 19455980.3798034, -4421118.49791312 ], [ 19455980.34479847, -4421118.63793285 ], [ 19455987.90586383, -4421120.70322385 ], [ 19455988.01087862, -4421120.56320412 ], [ 19455980.3798034, -4421118.49791312 ] ] ] } },
{ "type": "Feature", "properties": { "fid": 138, "zone_type": "entry_exit", "zone_name": "shops_lv3_entry-exit_5", "floor_level": 3 }, "geometry": { "type": "Polygon", "coordinates": [ [ [ 19455969.14322016, -4421141.8462029 ], [ 19455969.10821523, -4421142.02122756 ], [ 19455975.51411782, -4421143.8064791 ], [ 19455975.51411782, -4421143.73646923 ], [ 19455969.14322016, -4421141.8462029 ] ] ] } },
{ "type": "Feature", "properties": { "fid": 139, "zone_type": "entry_exit", "zone_name": "shops_lv3_entry-exit_6", "floor_level": 3 }, "geometry": { "type": "Polygon", "coordinates": [ [ [ 19455923.5317935, -4421107.57637427 ], [ 19455923.46178364, -4421107.716394 ], [ 19455932.10800189, -4421109.64166527 ], [ 19455932.14300682, -4421109.46664061 ], [ 19455923.5317935, -4421107.57637427 ] ] ] } },
{ "type": "Feature", "properties": { "fid": 140, "zone_type": "entry_exit", "zone_name": "Woolworths_lv3_entry-exit", "floor_level": 3 }, "geometry": { "type": "Polygon", "coordinates": [ [ [ 19455910.47495379, -4421106.52622631 ], [ 19455910.68498339, -4421106.66624604 ], [ 19455905.50425342, -4421127.17913631 ], [ 19455905.08419424, -4421127.10912644 ], [ 19455910.47495379, -4421106.52622631 ] ] ] } },
{ "type": "Feature", "properties": { "fid": 141, "zone_type": "entry_exit", "zone_name": "JB_HiFi_lv3_entry-exit", "floor_level": 3 }, "geometry": { "type": "Polygon", "coordinates": [ [ [ 19456035.96763574, -4421227.503272 ], [ 19456036.21267027, -4421227.53827693 ], [ 19456034.81247298, -4421234.46925351 ], [ 19456034.67245325, -4421234.39924364 ], [ 19456035.96763574, -4421227.503272 ] ] ] } },
{ "type": "Feature", "properties": { "fid": 142, "zone_type": "entry_exit", "zone_name": "shops_lv3_entry-exit_8", "floor_level": 3 }, "geometry": { "type": "Polygon", "coordinates": [ [ [ 19456043.66872083, -4421237.54968754 ], [ 19456043.87875042, -4421237.54968754 ], [ 19456043.4236863, -4421242.83543231 ], [ 19456043.35367644, -4421242.76542244 ], [ 19456043.66872083, -4421237.54968754 ] ] ] } },
{ "type": "Feature", "properties": { "fid": 143, "zone_type": "entry_exit", "zone_name": "shops_lv3_entry-exit_9", "floor_level": 3 }, "geometry": { "type": "Polygon", "coordinates": [ [ [ 19456032.64216718, -4421246.40593539 ], [ 19456032.92220665, -4421246.44094032 ], [ 19456032.18710307, -4421251.97171961 ], [ 19456031.97707348, -4421251.97171961 ], [ 19456032.64216718, -4421246.40593539 ] ] ] } },
{ "type": "Feature", "properties": { "fid": 144, "zone_type": "entry_exit", "zone_name": "RS_lv3_entry-exit", "floor_level": 3 }, "geometry": { "type": "Polygon", "coordinates": [ [ [ 19456031.27697483, -4421281.48087746 ], [ 19456031.38198963, -4421281.48087746 ], [ 19456031.48700443, -4421287.85177512 ], [ 19456031.3469847, -4421287.81677018 ], [ 19456031.27697483, -4421281.48087746 ] ] ] } },
{ "type": "Feature", "properties": { "fid": 145, "zone_type": "entry_exit", "zone_name": "shops_lv3_entry-exit_10", "floor_level": 3 }, "geometry": { "type": "Polygon", "coordinates": [ [ [ 19456048.67442614, -4421307.73457661 ], [ 19456048.9544656, -4421307.73457661 ], [ 19456049.23450506, -4421317.11589844 ], [ 19456049.02447546, -4421316.76584912 ], [ 19456048.67442614, -4421307.73457661 ] ] ] } },
{ "type": "Feature", "properties": { "fid": 146, "zone_type": "entry_exit", "zone_name": "shops_lv3_entry-exit_11", "floor_level": 3 }, "geometry": { "type": "Polygon", "coordinates": [ [ [ 19456035.42505931, -4421361.32712781 ], [ 19456035.56507904, -4421361.36213274 ], [ 19456035.46006424, -4421366.78789723 ], [ 19456035.35504944, -4421366.82290216 ], [ 19456035.42505931, -4421361.32712781 ] ] ] } },
{ "type": "Feature", "properties": { "fid": 147, "zone_type": "entry_exit", "zone_name": "NoelLeeming_lv3_entry-exit", "floor_level": 3 }, "geometry": { "type": "Polygon", "coordinates": [ [ [ 19456039.95819803, -4421367.82054273 ], [ 19456048.81444588, -4421367.38298108 ], [ 19456048.79694341, -4421367.47049341 ], [ 19456039.9757005, -4421367.87305013 ], [ 19456039.95819803, -4421367.82054273 ] ] ] } },
{ "type": "Feature", "properties": { "fid": 148, "zone_type": "entry_exit", "zone_name": "ArchieBros_lv3_entry-exit", "floor_level": 3 }, "geometry": { "type": "Polygon", "coordinates": [ [ [ 19456001.27774794, -4421351.24570734 ], [ 19456001.27774794, -4421351.35072213 ], [ 19456004.56821157, -4421351.19319994 ], [ 19456004.58571404, -4421351.08818514 ], [ 19456001.27774794, -4421351.24570734 ] ] ] } },
{ "type": "Feature", "properties": { "fid": 149, "zone_type": "entry_exit", "zone_name": "shops_lv3_entry-exit_12", "floor_level": 3 }, "geometry": { "type": "Polygon", "coordinates": [ [ [ 19456032.02958089, -4421319.61875109 ], [ 19456032.37963021, -4421319.61875109 ], [ 19456032.65966966, -4421329.91020116 ], [ 19456032.37963021, -4421330.12023075 ], [ 19456032.02958089, -4421319.61875109 ] ] ] } }
]
}
